{"type":"FeatureCollection","features":[{"type":"Feature","properties":{"name":"Ghana"},"geometry":{"type":"MultiLineString","coordinates":[[[-3.22619,6.82456],[-3.22595,6.82455],[-3.11656,7.00587],[-3.07494,7.06286],[-3.03206,7.07172],[-3.02914,7.09663],[-3.02362,7.14248],[-2.95336,7.23918],[-2.97818,7.27206],[-2.96964,7.33314],[-2.94839,7.43004],[-2.94726,7.45648],[-2.93707,7.48032],[-2.92346,7.60856],[-2.86935,7.73228],[-2.85061,7.76186],[-2.84862,7.78025],[-2.82611,7.80573],[-2.83035,7.82053],[-2.82502,7.82447],[-2.8262,7.82553],[-2.83289,7.84858],[-2.82524,7.86825],[-2.82213,7.91243],[-2.81031,7.93849],[-2.80856,7.9656],[-2.79314,7.98374],[-2.77173,7.99713],[-2.71271,8.01716],[-2.69559,8.0298],[-2.66199,8.04212],[-2.65269,8.04219],[-2.63667,8.05473],[-2.63143,8.05317],[-2.63617,8.06707],[-2.62988,8.11509],[-2.60847,8.1519],[-2.58991,8.15242],[-2.57622,8.14476],[-2.56538,8.14929],[-2.55972,8.14336],[-2.55545,8.14692],[-2.54478,8.17573],[-2.50896,8.19344],[-2.49489,8.20518],[-2.50141,8.30744],[-2.52444,8.44062],[-2.54897,8.54234],[-2.59,8.78655],[-2.61742,8.78702],[-2.62895,8.79431],[-2.62115,8.80768],[-2.59796,8.82237],[-2.59633,8.83074],[-2.6229,8.87788],[-2.6159,8.91154],[-2.61815,8.92208],[-2.62705,8.92968],[-2.64482,8.93602],[-2.65127,8.94402],[-2.65785,8.98375],[-2.6541,9.00744],[-2.65969,9.00688],[-2.66339,9.01528],[-2.67218,9.02023],[-2.70178,9.01535],[-2.70567,9.02088],[-2.72,9.01205],[-2.71351,9.02284],[-2.71656,9.02534],[-2.76052,9.02561],[-2.77214,9.03274],[-2.77358,9.04479],[-2.78253,9.05402],[-2.78189,9.06486],[-2.76555,9.08789],[-2.76772,9.1131],[-2.77105,9.1148],[-2.76756,9.11487],[-2.76862,9.12042],[-2.77459,9.13726],[-2.77906,9.13731],[-2.77461,9.13773],[-2.77193,9.14552],[-2.76361,9.151],[-2.74862,9.15523],[-2.75032,9.15787],[-2.74286,9.15611],[-2.73687,9.15951],[-2.72263,9.18652],[-2.72111,9.19322],[-2.72495,9.19893],[-2.72038,9.19501],[-2.71853,9.2034],[-2.71155,9.21018],[-2.69562,9.21982],[-2.69209,9.22624],[-2.66192,9.24011],[-2.65658,9.25557],[-2.68493,9.287],[-2.70106,9.2857],[-2.7106,9.29118],[-2.72125,9.31289],[-2.71954,9.33473],[-2.70313,9.33928],[-2.6811,9.36134],[-2.67517,9.37625],[-2.67524,9.39814],[-2.68755,9.4275],[-2.69005,9.44693],[-2.6841,9.48626],[-2.69374,9.5038],[-2.7138,9.52388],[-2.73101,9.52953],[-2.76066,9.55527],[-2.77107,9.57512],[-2.77113,9.60132],[-2.7642,9.60652],[-2.76213,9.61769],[-2.74726,9.63174],[-2.74446,9.64188],[-2.74635,9.64164],[-2.7541,9.65258],[-2.75851,9.68071],[-2.78098,9.68786],[-2.78641,9.69327],[-2.78329,9.72501],[-2.7906,9.74615],[-2.77856,9.75701],[-2.75855,9.80054],[-2.7325,9.81497],[-2.7268,9.82894],[-2.73053,9.83808],[-2.74722,9.8544],[-2.76255,9.88488],[-2.76426,9.9129],[-2.75979,9.92795],[-2.74553,9.94691],[-2.74318,9.95911],[-2.75009,9.98163],[-2.77078,10.00334],[-2.78227,10.02697],[-2.78259,10.04451],[-2.79076,10.06965],[-2.78837,10.09375],[-2.794,10.12645],[-2.78772,10.14002],[-2.79488,10.1753],[-2.79412,10.17575],[-2.79793,10.18924],[-2.79592,10.19769],[-2.7612,10.2261],[-2.7562,10.24731],[-2.76333,10.26402],[-2.79781,10.27671],[-2.83415,10.2967],[-2.84948,10.31622],[-2.84978,10.32598],[-2.84217,10.34547],[-2.84157,10.36652],[-2.83141,10.38805],[-2.81752,10.39824],[-2.79984,10.39785],[-2.77979,10.40857],[-2.77274,10.4251],[-2.79091,10.42648],[-2.83367,10.4372],[-2.85556,10.4486],[-2.85387,10.45076],[-2.86346,10.45647],[-2.87206,10.47375],[-2.87463,10.49108],[-2.89908,10.5228],[-2.89809,10.5402],[-2.90179,10.55111],[-2.91075,10.56306],[-2.92442,10.59563],[-2.94042,10.61286],[-2.9406,10.63664],[-2.93095,10.65215],[-2.91566,10.66355],[-2.90546,10.68822],[-2.91085,10.69985],[-2.93999,10.70927],[-2.93676,10.72379],[-2.91889,10.73579],[-2.89393,10.76298],[-2.89625,10.76263],[-2.88098,10.80373],[-2.87909,10.83193],[-2.86354,10.85773],[-2.86557,10.88414],[-2.85826,10.89118],[-2.83708,10.89347],[-2.81752,10.92377],[-2.81974,10.94258],[-2.84064,10.96754],[-2.834,11.00409],[-2.76791,11.0048],[-2.76786,11.01263],[-2.75499,11.01919],[-2.6193,11.02004],[-2.61951,11.01685],[-2.61881,11.01676],[-2.61797,11.02131],[-2.49773,11.01824],[-2.45231,11.02332],[-2.36016,11.00815],[-2.22016,11.02066],[-2.11837,11.01428],[-2.05796,11.01748],[-2.0063,11.00401],[-1.74339,11.00811],[-1.74453,11.03796],[-1.54581,11.04023],[-1.5441,11.01015],[-1.42893,11.01106],[-1.42907,11.01347],[-1.42339,11.01515],[-1.42282,11.02026],[-1.39612,10.99061],[-1.3772,10.9861],[-1.37088,10.98891],[-1.277,10.99096],[-1.18165,10.98922],[-1.15335,10.98651],[-1.15385,10.98814],[-1.1146,10.98584],[-1.11478,11.00391],[-1.00028,11.00789],[-1.00013,10.99852],[-0.91655,11.00225],[-0.91665,10.98031],[-0.91159,10.98044],[-0.91129,10.98104],[-0.89032,10.98192],[-0.88896,10.96505],[-0.8929,10.96302],[-0.89282,10.96279],[-0.87001,10.96673],[-0.85504,10.99832],[-0.82842,10.99833],[-0.82726,11.00653],[-0.80757,11.00583],[-0.80753,10.99804],[-0.68406,10.99864],[-0.68574,10.98561],[-0.67853,10.98245],[-0.67244,10.99043],[-0.65367,10.98757],[-0.65541,10.97609],[-0.66377,10.97464],[-0.67117,10.95887],[-0.66146,10.95637],[-0.65361,10.96376],[-0.64549,10.95302],[-0.64874,10.95033],[-0.62556,10.93799],[-0.61772,10.91084],[-0.5932,10.92369],[-0.59154,10.93531],[-0.58639,10.93882],[-0.58609,10.96088],[-0.5816,10.96315],[-0.56881,10.99136],[-0.55293,10.99067],[-0.55119,10.97908],[-0.54468,10.975],[-0.5441,10.98443],[-0.52962,11.00056],[-0.52296,10.99137],[-0.51125,10.98892],[-0.50141,11.00216],[-0.50175,11.01669],[-0.48031,11.0229],[-0.48189,11.02583],[-0.47568,11.03526],[-0.46111,11.02801],[-0.43791,11.03041],[-0.43363,11.03712],[-0.43857,11.04429],[-0.43485,11.04783],[-0.43979,11.06495],[-0.43151,11.08601],[-0.42811,11.11425],[-0.41065,11.11966],[-0.40119,11.12688],[-0.37237,11.12292],[-0.37589,11.10678],[-0.37099,11.0987],[-0.37214,11.09134],[-0.36023,11.07711],[-0.36178,11.06862],[-0.3687,11.06075],[-0.36815,11.06022],[-0.35534,11.0723],[-0.35339,11.08464],[-0.34164,11.0857],[-0.33667,11.09081],[-0.33873,11.09083],[-0.33672,11.10672],[-0.32255,11.11437],[-0.27341,11.12354],[-0.27174,11.13747],[-0.2897,11.14771],[-0.28478,11.15328],[-0.28326,11.16754],[-0.27602,11.17484],[-0.21797,11.16018],[-0.21845,11.15884],[-0.21263,11.16003],[-0.13649,11.13985],[-0.1342,11.12947],[-0.14397,11.11875],[-0.14365,11.10659],[-0.12476,11.10487],[-0.09487,11.08585],[-0.05465,11.08607],[-0.04535,11.10118],[-0.03223,11.10964],[-0.01945,11.11444],[-0.00596,11.10845],[-0.00533,11.10067],[0.00222,11.09477],[0.00398,11.08269],[0.0243,11.06294],[0.02611,11.03555],[0.03281,10.98773],[0.02482,10.97252],[-0.00611,10.96259],[-0.00742,10.94568],[-0.01183,10.94386],[-0.01235,10.93802],[-0.01224,10.92403],[-0.00777,10.9206],[-0.00762,10.91457],[-0.01492,10.90622],[-0.01789,10.8897],[-0.02528,10.88135],[-0.02514,10.86594],[-0.02985,10.85588],[-0.02225,10.81966],[-0.02954,10.81506],[-0.03138,10.80737],[-0.04401,10.79897],[-0.0455,10.79236],[-0.05679,10.78631],[-0.06464,10.77275],[-0.073,10.76998],[-0.07153,10.76707],[-0.07118,10.76708],[-0.07463,10.75688],[-0.07145,10.74201],[-0.07301,10.71992],[-0.09027,10.71165],[-0.07162,10.6738],[-0.0593,10.63236],[-0.01566,10.62352],[-0.01179,10.61585],[0.04125,10.60156],[0.04288,10.59423],[0.05624,10.58355],[0.06044,10.56163],[0.1177,10.54129],[0.12795,10.53004],[0.14355,10.52566],[0.15066,10.48761],[0.15919,10.4736],[0.1545,10.4653],[0.16468,10.4534],[0.17206,10.45106],[0.16671,10.44134],[0.1696,10.42932],[0.18224,10.42297],[0.18519,10.41706],[0.18845,10.41843],[0.19334,10.40228],[0.20178,10.40693],[0.2094,10.40538],[0.20515,10.41831],[0.21178,10.41683],[0.2103,10.42156],[0.21717,10.42655],[0.22063,10.4248],[0.21758,10.42237],[0.22651,10.4219],[0.23378,10.41343],[0.24346,10.41577],[0.25083,10.4092],[0.25957,10.40779],[0.26837,10.41009],[0.26657,10.41564],[0.27042,10.41546],[0.2729,10.42075],[0.28547,10.42147],[0.29003,10.40914],[0.29796,10.40953],[0.30017,10.40278],[0.30008,10.39083],[0.29013,10.37649],[0.30277,10.36947],[0.30761,10.37113],[0.31436,10.36],[0.31531,10.33779],[0.32076,10.334],[0.32812,10.33949],[0.33346,10.33639],[0.33781,10.32505],[0.32351,10.32004],[0.32237,10.31343],[0.31704,10.30987],[0.32499,10.30682],[0.33238,10.31152],[0.34802,10.30756],[0.35299,10.31393],[0.36645,10.31058],[0.3907,10.31591],[0.39762,10.30951],[0.39686,10.30446],[0.38311,10.3],[0.3845,10.29705],[0.37673,10.29113],[0.37802,10.28677],[0.37284,10.28845],[0.3728,10.28317],[0.36999,10.28441],[0.36985,10.2842],[0.38164,10.27392],[0.36224,10.26292],[0.36116,10.22238],[0.35503,10.21333],[0.35015,10.16803],[0.36296,10.13999],[0.352,10.11091],[0.35528,10.09177],[0.36446,10.08526],[0.39518,10.08095],[0.41732,10.05903],[0.4104,10.02171],[0.40203,10.02035],[0.39414,10.02614],[0.3757,10.02698],[0.36523,10.03501],[0.36024,10.02943],[0.364,10.01628],[0.35704,9.99709],[0.35904,9.98711],[0.36968,9.96397],[0.38608,9.95043],[0.38641,9.93783],[0.36591,9.93235],[0.3558,9.92381],[0.35138,9.90416],[0.35126,9.88241],[0.35814,9.84851],[0.34876,9.82573],[0.34026,9.81725],[0.34038,9.80627],[0.33147,9.79879],[0.33544,9.7786],[0.32536,9.77357],[0.32986,9.75878],[0.31866,9.72774],[0.32363,9.72255],[0.33789,9.72132],[0.34585,9.71447],[0.35139,9.69302],[0.35058,9.67586],[0.36319,9.67343],[0.36267,9.66862],[0.36819,9.66607],[0.36509,9.66075],[0.36914,9.65221],[0.37549,9.65387],[0.37676,9.64351],[0.38203,9.64492],[0.37265,9.60815],[0.38289,9.59161],[0.36834,9.57724],[0.35182,9.57266],[0.33443,9.57923],[0.31845,9.57586],[0.28954,9.5771],[0.26573,9.56735],[0.25335,9.57474],[0.23956,9.57442],[0.23457,9.54806],[0.24299,9.52401],[0.25516,9.51881],[0.29005,9.52362],[0.30598,9.51533],[0.31058,9.50649],[0.28886,9.48946],[0.27592,9.48873],[0.26704,9.47894],[0.25433,9.4782],[0.23473,9.48814],[0.22898,9.48721],[0.22869,9.46309],[0.24682,9.44358],[0.24694,9.43827],[0.25901,9.43418],[0.26212,9.42836],[0.2699,9.43158],[0.26889,9.42848],[0.27385,9.42729],[0.28745,9.4305],[0.28901,9.43452],[0.30479,9.43837],[0.31266,9.44632],[0.32217,9.44915],[0.32698,9.44682],[0.33761,9.45188],[0.34791,9.47785],[0.3437,9.48825],[0.35963,9.49918],[0.38945,9.49159],[0.40773,9.49412],[0.41536,9.50243],[0.43005,9.49797],[0.44641,9.50144],[0.46231,9.49443],[0.46353,9.49018],[0.49026,9.4862],[0.50306,9.47526],[0.50072,9.47208],[0.50575,9.46751],[0.50397,9.45798],[0.49509,9.45186],[0.50064,9.43743],[0.51956,9.43973],[0.52449,9.43155],[0.54879,9.42204],[0.55332,9.42376],[0.55746,9.41042],[0.56659,9.4056],[0.56313,9.35449],[0.55276,9.34566],[0.56299,9.32446],[0.55978,9.30574],[0.53968,9.30631],[0.53739,9.30184],[0.54055,9.30116],[0.51587,9.27284],[0.50795,9.25459],[0.51889,9.22928],[0.53905,9.21354],[0.52187,9.1934],[0.51451,9.16876],[0.50475,9.16043],[0.50305,9.15389],[0.4959,9.1561],[0.47692,9.14431],[0.48112,9.14078],[0.48534,9.12335],[0.4859,9.09866],[0.47848,9.09922],[0.45937,9.07242],[0.46431,9.07201],[0.46258,9.05527],[0.45629,9.05514],[0.45547,9.0356],[0.46312,9.03408],[0.46508,9.023],[0.4704,9.01924],[0.46982,9.00764],[0.49416,8.95729],[0.50745,8.94945],[0.5147,8.93545],[0.50894,8.9179],[0.51268,8.91407],[0.51226,8.90258],[0.52757,8.87779],[0.5202,8.87226],[0.51718,8.86416],[0.52148,8.85886],[0.51966,8.85321],[0.50887,8.85546],[0.50732,8.84745],[0.49622,8.84014],[0.50146,8.82914],[0.49693,8.8276],[0.49543,8.82046],[0.50028,8.81477],[0.49161,8.80088],[0.47237,8.79966],[0.46868,8.79212],[0.45923,8.80209],[0.45865,8.81058],[0.44781,8.81083],[0.44309,8.802],[0.4302,8.79611],[0.43105,8.79061],[0.43938,8.79316],[0.43988,8.78557],[0.42563,8.77993],[0.4212,8.79132],[0.40293,8.79376],[0.39781,8.79019],[0.39392,8.79602],[0.38439,8.79113],[0.38155,8.79415],[0.37969,8.79166],[0.38195,8.778],[0.37876,8.77201],[0.38934,8.76178],[0.39625,8.76151],[0.39661,8.75713],[0.39921,8.76172],[0.40114,8.7567],[0.39681,8.75381],[0.37438,8.75475],[0.38473,8.74497],[0.38329,8.74096],[0.4717,8.59969],[0.47031,8.59961],[0.48014,8.59381],[0.48205,8.59861],[0.49178,8.5975],[0.50067,8.58135],[0.49963,8.57419],[0.50728,8.57352],[0.51479,8.56491],[0.5311,8.56941],[0.54235,8.55596],[0.56114,8.54888],[0.57173,8.52596],[0.58431,8.52857],[0.59101,8.5167],[0.60183,8.51808],[0.62124,8.51215],[0.62961,8.50779],[0.62611,8.50274],[0.62985,8.49651],[0.63966,8.49785],[0.64531,8.49382],[0.64501,8.47535],[0.65581,8.45543],[0.65153,8.44826],[0.65182,8.42196],[0.67136,8.41677],[0.67905,8.4098],[0.68597,8.41122],[0.68825,8.4054],[0.69613,8.40433],[0.69326,8.39493],[0.70552,8.3945],[0.69889,8.38881],[0.70951,8.38499],[0.71121,8.37943],[0.70838,8.37749],[0.71214,8.37675],[0.70817,8.37219],[0.7116,8.36648],[0.71005,8.35194],[0.72013,8.34942],[0.71762,8.34328],[0.72943,8.34106],[0.72691,8.33676],[0.7313,8.29431],[0.72639,8.28151],[0.68286,8.27964],[0.6819,8.2662],[0.6735,8.25901],[0.63893,8.26058],[0.63827,8.24506],[0.62459,8.23583],[0.62544,8.22491],[0.61893,8.21959],[0.61906,8.21514],[0.61064,8.21621],[0.59003,8.20775],[0.58983,8.19505],[0.60315,8.18138],[0.61328,8.18419],[0.61386,8.1801],[0.60696,8.17225],[0.61131,8.15407],[0.60691,8.13875],[0.59207,8.13904],[0.59186,8.10316],[0.58724,8.10318],[0.58504,8.09331],[0.59266,8.0606],[0.59729,8.06273],[0.59876,8.05827],[0.59414,8.03987],[0.59864,8.027],[0.60955,8.02707],[0.61333,8.01937],[0.62212,8.01449],[0.62248,8.00783],[0.61258,8.00572],[0.61713,7.96531],[0.62369,7.96245],[0.62116,7.93667],[0.62721,7.93194],[0.62661,7.92532],[0.63127,7.91925],[0.62704,7.9172],[0.6323,7.9146],[0.62781,7.90901],[0.62806,7.9018],[0.62631,7.90169],[0.61978,7.90027],[0.622,7.87798],[0.62742,7.8682],[0.62701,7.85957],[0.62402,7.84229],[0.61977,7.83746],[0.6174,7.80669],[0.62142,7.79952],[0.61709,7.79621],[0.62946,7.79446],[0.62688,7.78862],[0.63091,7.76762],[0.61911,7.76434],[0.61988,7.75745],[0.61309,7.75663],[0.61144,7.75283],[0.61688,7.74487],[0.62349,7.71407],[0.63008,7.70623],[0.61959,7.7032],[0.60879,7.71091],[0.5907,7.703],[0.58283,7.6569],[0.58595,7.62393],[0.55352,7.60715],[0.5436,7.60807],[0.51837,7.59226],[0.52726,7.58936],[0.52905,7.58422],[0.52136,7.52014],[0.51895,7.51246],[0.52408,7.50275],[0.52309,7.49364],[0.52853,7.49104],[0.52605,7.48286],[0.52988,7.4811],[0.5212,7.47382],[0.52146,7.46502],[0.52498,7.46359],[0.5189,7.46082],[0.52235,7.45933],[0.52112,7.45469],[0.53214,7.45718],[0.53387,7.44978],[0.53059,7.4473],[0.53424,7.44716],[0.53207,7.44343],[0.53742,7.43467],[0.53588,7.4263],[0.54359,7.42166],[0.55309,7.40518],[0.57313,7.39474],[0.59865,7.4002],[0.60117,7.40785],[0.60615,7.40573],[0.61959,7.41333],[0.62934,7.40411],[0.64466,7.39793],[0.64815,7.37896],[0.64323,7.37497],[0.6589,7.31665],[0.64323,7.27974],[0.64419,7.26298],[0.63127,7.19643],[0.62487,7.1828],[0.61717,7.18248],[0.61689,7.16164],[0.61327,7.15686],[0.60558,7.15752],[0.60511,7.14099],[0.59692,7.13358],[0.59207,7.11369],[0.59793,7.11435],[0.60226,7.10871],[0.61183,7.10593],[0.61468,7.09516],[0.59708,7.06001],[0.60268,7.02324],[0.59413,7.00904],[0.59521,7.00243],[0.54855,6.99349],[0.53863,6.9863],[0.53513,6.97802],[0.52287,6.97337],[0.52594,6.9416],[0.52479,6.94002],[0.54773,6.93763],[0.55002,6.92963],[0.55948,6.92865],[0.56591,6.92241],[0.55786,6.88812],[0.53446,6.87744],[0.54317,6.86472],[0.53178,6.85675],[0.53276,6.82881],[0.52099,6.82586],[0.52101,6.8256],[0.53939,6.82464],[0.54636,6.82817],[0.5473,6.83439],[0.56096,6.82392],[0.565,6.82469],[0.57037,6.80888],[0.5798,6.80734],[0.5759,6.79822],[0.56737,6.80262],[0.57072,6.79704],[0.56709,6.79693],[0.56999,6.79294],[0.56639,6.78287],[0.57744,6.77443],[0.57173,6.77438],[0.58168,6.76152],[0.60089,6.75648],[0.60838,6.7472],[0.61876,6.75449],[0.62519,6.7474],[0.63261,6.74885],[0.65041,6.73763],[0.64323,6.71913],[0.64916,6.71276],[0.64371,6.69726],[0.64466,6.66662],[0.63551,6.64335],[0.63997,6.63842],[0.63139,6.62885],[0.64307,6.63225],[0.65641,6.6086],[0.66695,6.60523],[0.67277,6.61366],[0.69786,6.58845],[0.71173,6.58502],[0.72366,6.58994],[0.74245,6.58904],[0.74886,6.5631],[0.71903,6.53491],[0.71738,6.52747],[0.72173,6.50201],[0.73216,6.48481],[0.74652,6.48395],[0.74488,6.45838],[0.74922,6.44819],[0.78195,6.43448],[0.78752,6.4134],[0.82609,6.40411],[0.86189,6.37916],[0.88379,6.35552],[0.89264,6.33551],[0.964,6.33495],[1.00435,6.33474],[1.00804,6.32163],[1.00534,6.31101],[1.00795,6.2938],[1.01574,6.28724],[1.01781,6.26968],[1.03652,6.23828],[1.05483,6.23333],[1.06631,6.21902],[1.0757,6.19442],[1.07158,6.19494],[1.08095,6.1829],[1.07916,6.17772],[1.07649,6.18226],[1.07543,6.17715],[1.07895,6.17148],[1.08573,6.16864],[1.20022,6.16763],[1.19948,6.1127],[1.12612,6.07734],[1.08184,6.04652],[1.03137,5.98271],[0.99562,5.92648],[0.99025,5.90672],[0.99375,5.87955],[0.98843,5.85751],[0.98087,5.84048],[0.95992,5.81484],[0.94121,5.7961],[0.92401,5.78651],[0.82652,5.77449],[0.81652,5.76964],[0.73409,5.77303],[0.7278,5.77014],[0.72236,5.77048],[0.71275,5.76783],[0.70812,5.76794],[0.71525,5.77309],[0.69349,5.77048],[0.6941,5.76559],[0.68016,5.77078],[0.67007,5.76852],[0.45828,5.7888],[0.35109,5.78497],[0.31386,5.78075],[0.25277,5.76632],[0.21916,5.74636],[0.18482,5.74339],[0.14106,5.72377],[0.12447,5.70689],[0.06728,5.69309],[0.04516,5.67511],[0.04349,5.66345],[0.03201,5.6561],[0.03235,5.65475],[0.02722,5.64532],[0.01723,5.64232],[0.00415,5.62441],[-0.04528,5.6109],[-0.05264,5.60786],[-0.0549,5.60841],[-0.07357,5.59004],[-0.09723,5.58156],[-0.10225,5.57494],[-0.13387,5.56331],[-0.17409,5.54981],[-0.19556,5.54383],[-0.20557,5.54053],[-0.20761,5.53318],[-0.21943,5.53077],[-0.2723,5.51887],[-0.3584,5.49764],[-0.40539,5.47045],[-0.40595,5.47376],[-0.40658,5.4737],[-0.40641,5.4654],[-0.42058,5.45201],[-0.46444,5.43008],[-0.46705,5.42504],[-0.46285,5.41848],[-0.47383,5.4066],[-0.48217,5.40117],[-0.48869,5.38533],[-0.49901,5.37784],[-0.54451,5.36646],[-0.55731,5.36695],[-0.5531,5.36491],[-0.62316,5.33151],[-0.63989,5.32777],[-0.64044,5.32986],[-0.72451,5.29997],[-0.73103,5.29216],[-0.72692,5.28518],[-0.74974,5.27112],[-0.7567,5.26393],[-0.75615,5.258],[-0.77781,5.24622],[-0.78258,5.23659],[-0.79036,5.23198],[-0.78968,5.22649],[-0.79811,5.22311],[-0.81693,5.21299],[-1.01538,5.20132],[-1.09099,5.19422],[-1.11965,5.17299],[-1.14852,5.16421],[-1.16635,5.14532],[-1.1937,5.13784],[-1.19843,5.13291],[-1.20484,5.12055],[-1.2118,5.11784],[-1.24643,5.10058],[-1.32174,5.09678],[-1.31752,5.10012],[-1.31764,5.10032],[-1.34587,5.0897],[-1.34767,5.08169],[-1.42197,5.06761],[-1.44247,5.05867],[-1.47433,5.05535],[-1.50446,5.04294],[-1.58022,5.03314],[-1.60422,5.02932],[-1.62236,5.021],[-1.63352,4.99919],[-1.63119,4.99157],[-1.63561,4.98672],[-1.63467,4.98098],[-1.64072,4.97837],[-1.64319,4.97128],[-1.67412,4.96543],[-1.67274,4.96623],[-1.67301,4.96678],[-1.70279,4.95514],[-1.70582,4.95081],[-1.70249,4.94635],[-1.7068,4.94627],[-1.70885,4.94054],[-1.70618,4.93366],[-1.73497,4.92355],[-1.74196,4.91629],[-1.74836,4.89499],[-1.74215,4.88752],[-1.73315,4.88816],[-1.73503,4.88153],[-1.76739,4.87492],[-1.8073,4.87352],[-1.81317,4.87079],[-1.81343,4.86677],[-1.83023,4.86197],[-1.83808,4.84864],[-1.87118,4.84336],[-1.88487,4.83524],[-1.89049,4.82644],[-1.91255,4.82578],[-1.9171,4.81355],[-1.93669,4.80681],[-1.93996,4.79527],[-1.94859,4.79302],[-1.94762,4.78768],[-1.97222,4.76929],[-1.97406,4.75892],[-1.98016,4.75577],[-1.99194,4.75936],[-2.02671,4.75737],[-2.0357,4.75153],[-2.03582,4.75598],[-2.03885,4.75526],[-2.05148,4.74705],[-2.05447,4.73981],[-2.06467,4.74665],[-2.06837,4.74297],[-2.07192,4.74834],[-2.07959,4.74864],[-2.09213,4.73877],[-2.09395,4.74902],[-2.11172,4.75457],[-2.10939,4.76352],[-2.1135,4.7642],[-2.10514,4.77556],[-2.12228,4.78966],[-2.13483,4.78953],[-2.15338,4.79783],[-2.16632,4.79668],[-2.17008,4.792],[-2.1684,4.79929],[-2.1723,4.80372],[-2.16958,4.80748],[-2.17981,4.81634],[-2.18125,4.81556],[-2.20355,4.82195],[-2.20409,4.83156],[-2.21088,4.83857],[-2.24746,4.85529],[-2.24176,4.86245],[-2.24773,4.88032],[-2.26942,4.8923],[-2.26826,4.90469],[-2.26903,4.90479],[-2.26998,4.89962],[-2.38357,4.94346],[-2.51216,4.97079],[-2.55989,4.98697],[-2.56434,4.97579],[-2.635,4.98226],[-2.67125,4.99934],[-2.73821,5.00835],[-2.77146,5.01897],[-3.1086,5.0902],[-3.10905,5.11595],[-3.10167,5.11238],[-3.0943,5.11537],[-3.08506,5.11188],[-3.07241,5.11308],[-3.07176,5.11943],[-3.06343,5.12196],[-3.05191,5.11595],[-3.04827,5.12042],[-3.04199,5.1166],[-3.02148,5.11943],[-3.00236,5.11098],[-2.97624,5.08708],[-2.94909,5.08405],[-2.94162,5.09398],[-2.92957,5.0967],[-2.93433,5.1026],[-2.93455,5.11076],[-2.94314,5.11432],[-2.93987,5.12521],[-2.9282,5.12085],[-2.90614,5.12346],[-2.89174,5.11947],[-2.89064,5.12675],[-2.88403,5.12376],[-2.87685,5.12806],[-2.86336,5.12313],[-2.84443,5.10733],[-2.83813,5.10961],[-2.84088,5.11463],[-2.8322,5.12144],[-2.82729,5.11989],[-2.81756,5.1056],[-2.81352,5.11341],[-2.81021,5.10627],[-2.80613,5.11161],[-2.79062,5.10701],[-2.78571,5.11759],[-2.78544,5.10902],[-2.77252,5.11146],[-2.75726,5.10074],[-2.75409,5.11658],[-2.74219,5.1135],[-2.73735,5.1188],[-2.7401,5.12322],[-2.73745,5.12884],[-2.73206,5.12867],[-2.73266,5.13445],[-2.72774,5.13139],[-2.72377,5.14093],[-2.72721,5.14012],[-2.73101,5.15179],[-2.73647,5.14871],[-2.74158,5.1557],[-2.73576,5.16226],[-2.74061,5.16115],[-2.74558,5.16694],[-2.74122,5.17566],[-2.74951,5.19449],[-2.74763,5.20207],[-2.75712,5.20053],[-2.76482,5.21691],[-2.75696,5.21835],[-2.76095,5.2297],[-2.75535,5.23299],[-2.76582,5.23634],[-2.76238,5.24568],[-2.75473,5.24216],[-2.76077,5.24983],[-2.75492,5.24617],[-2.75457,5.25322],[-2.7639,5.25516],[-2.76555,5.25993],[-2.77281,5.25844],[-2.77592,5.26531],[-2.77889,5.26359],[-2.77928,5.26604],[-2.76927,5.26824],[-2.78073,5.27649],[-2.78526,5.28559],[-2.78119,5.29466],[-2.76955,5.29458],[-2.76644,5.30522],[-2.76606,5.31717],[-2.77176,5.32901],[-2.77745,5.33094],[-2.77055,5.33622],[-2.77673,5.34642],[-2.76838,5.35699],[-2.75568,5.34377],[-2.73838,5.34723],[-2.72662,5.34094],[-2.72039,5.34525],[-2.72416,5.35746],[-2.72419,5.38776],[-2.74781,5.43789],[-2.76827,5.55437],[-2.76135,5.59932],[-2.7789,5.60579],[-2.77534,5.6151],[-2.78503,5.61424],[-2.78629,5.62481],[-2.7903,5.62338],[-2.7927,5.6279],[-2.79334,5.62321],[-2.80713,5.61829],[-2.8051,5.62127],[-2.81055,5.62489],[-2.80871,5.6273],[-2.82219,5.62639],[-2.82855,5.63449],[-2.84588,5.64274],[-2.84867,5.64862],[-2.85619,5.64932],[-2.85835,5.65708],[-2.86856,5.64508],[-2.88209,5.64009],[-2.88604,5.63474],[-2.89993,5.62922],[-2.92074,5.62799],[-2.92443,5.62124],[-2.93447,5.61976],[-2.94756,5.63662],[-2.96665,5.64061],[-2.96102,5.66965],[-2.95333,5.67383],[-2.95273,5.71598],[-3.02608,5.70973],[-3.02052,5.85709],[-3.07282,5.98254],[-3.10228,6.15194],[-3.13094,6.20807],[-3.15481,6.25223],[-3.1743,6.25157],[-3.17073,6.29421],[-3.17696,6.31289],[-3.18575,6.32596],[-3.1865,6.34291],[-3.23664,6.53873],[-3.23415,6.59647],[-3.26206,6.61761],[-3.25666,6.64386],[-3.24368,6.66548],[-3.23526,6.66767],[-3.23667,6.67641],[-3.23108,6.68067],[-3.23272,6.68631],[-3.22782,6.69126],[-3.23217,6.70059],[-3.2223,6.70522],[-3.209,6.73163],[-3.21784,6.74885],[-3.21191,6.7553],[-3.22717,6.76779],[-3.2313,6.77665],[-3.23184,6.82114],[-3.22619,6.82456]]]}}]}