{"type":"FeatureCollection","features":[{"type":"Feature","properties":{},"geometry":{"type":"MultiLineString","coordinates":[[[-8.1469,9.8647],[-8.151,9.8661],[-8.1551,9.8752],[-8.1521,9.8788],[-8.1473,9.8801],[-8.1457,9.8825],[-8.1472,9.8879],[-8.1495,9.9053],[-8.1532,9.9109],[-8.159,9.9124],[-8.1645,9.9127],[-8.1679,9.9147],[-8.1715,9.9228],[-8.1747,9.933],[-8.1738,9.9419],[-8.1524,9.95],[-8.1401,9.9597],[-8.1363,9.9694],[-8.1489,9.9739],[-8.1585,9.9849],[-8.1477,10.01],[-8.1275,10.0371],[-8.1088,10.0542],[-8.0579,10.0731],[-8.0349,10.0858],[-8.0157,10.1104],[-8.0123,10.1249],[-8.0072,10.1383],[-7.9998,10.1507],[-7.9897,10.162]],[[-8.0099,9.3836],[-8.0323,9.3846],[-8.0541,9.3891],[-8.0704,9.3975],[-8.0872,9.4154],[-8.1454,9.4971],[-8.1529,9.5131],[-8.1576,9.5309],[-8.161,9.5536],[-8.1616,9.5756],[-8.1603,9.5848],[-8.1235,9.8449],[-8.1281,9.8662]],[[-8.1281,9.8662],[-8.1469,9.8647]],[[-7.8787,9.1639],[-7.9296,9.1839],[-7.9306,9.2203],[-7.8949,9.3071],[-7.8917,9.3302],[-7.8654,9.4099],[-7.8706,9.4186],[-7.9119,9.4187]],[[-7.9119,9.4187],[-7.933,9.4143],[-7.9711,9.393],[-7.9916,9.3853],[-8.0099,9.3836]],[[-7.831,8.7477],[-7.891,8.7657],[-7.9131,8.7682],[-7.9589,8.782],[-7.9689,8.8128],[-7.9507,8.8995],[-7.9465,8.9486],[-7.9416,8.9722],[-7.9319,8.9965],[-7.9318,8.9965],[-7.9318,8.9966],[-7.9318,8.9966],[-7.9167,9.0123],[-7.827,9.0578],[-7.8078,9.06],[-7.7881,9.06],[-7.7642,9.0636],[-7.7482,9.0754],[-7.7468,9.0764],[-7.7594,9.0917],[-7.801,9.1148],[-7.8234,9.132],[-7.8342,9.143],[-7.8479,9.1686],[-7.8562,9.1702]],[[-7.8562,9.1702],[-7.8663,9.166],[-7.8787,9.1639]],[[-7.7207,8.3685],[-7.6624,8.3749],[-7.6832,8.4173],[-7.6896,8.4387],[-7.6865,8.4626],[-7.6793,8.4877],[-7.6792,8.5051],[-7.6917,8.5467],[-7.694,8.5678],[-7.6916,8.6061],[-7.6968,8.6248],[-7.7039,8.6335],[-7.7318,8.6521],[-7.7412,8.6629],[-7.7651,8.7061],[-7.7721,8.7145],[-7.7909,8.7309],[-7.7957,8.7365],[-7.8037,8.7491],[-7.8102,8.7534],[-7.8161,8.7535]],[[-7.8161,8.7535],[-7.8266,8.7482],[-7.831,8.7477]],[[-8.0766,8.5033],[-8.0681,8.5005],[-8.0572,8.4909],[-8.0507,8.4877],[-8.0425,8.4872]],[[-8.1505,8.4865],[-8.1301,8.4886],[-8.0969,8.5017],[-8.0766,8.5033]],[[-7.9705,8.497],[-7.9563,8.4944],[-7.9439,8.4846],[-7.937,8.4714],[-7.9316,8.457],[-7.9238,8.4438],[-7.9129,8.4342],[-7.8986,8.4263],[-7.8823,8.4215],[-7.8656,8.4209]],[[-8.0157,8.4872],[-7.9859,8.4949],[-7.9705,8.497]],[[-8.1863,8.4937],[-8.1505,8.4865]],[[-8.0855,8.162],[-8.1829,8.1917],[-8.266,8.246],[-8.2646,8.2565],[-8.2483,8.2736],[-8.2453,8.2851],[-8.2476,8.3038],[-8.2476,8.3226],[-8.2353,8.3795],[-8.2369,8.4001],[-8.2421,8.4128],[-8.2491,8.4238],[-8.2543,8.4345],[-8.2544,8.4465],[-8.2489,8.4536],[-8.2003,8.4918],[-8.1863,8.4937]],[[-8.0249,8.4886],[-8.0157,8.4872]],[[-8.0425,8.4872],[-8.0249,8.4886]],[[-7.8238,8.4779],[-7.8024,8.4492],[-7.771,8.3865],[-7.7483,8.3723],[-7.7207,8.3685]],[[-7.8656,8.4209],[-7.8486,8.4286],[-7.8468,8.4427],[-7.8494,8.4592],[-7.8457,8.4743],[-7.8238,8.4779]],[[-7.9626,8.0152],[-7.9656,8.0269],[-7.9682,8.037],[-7.9804,8.059],[-7.9971,8.0773],[-8.0157,8.0885],[-8.0213,8.1027],[-8.0217,8.1177],[-8.0157,8.1482],[-8.0083,8.1604],[-8.0024,8.1743],[-8.0033,8.184]],[[-8.0033,8.184],[-8.0157,8.1839],[-8.076,8.1634],[-8.0855,8.162]],[[-8.012,8.0356],[-8.0022,8.0324],[-7.9925,8.0242],[-7.9804,8.0166],[-7.9626,8.0152]],[[-8.0538,8.0288],[-8.012,8.0356]],[[-8.0691,8.0293],[-8.0538,8.0288]],[[-8.229,7.5443],[-8.2002,7.5763],[-8.1998,7.5834],[-8.203,7.5996],[-8.2026,7.6072],[-8.1979,7.6186],[-8.1779,7.6439],[-8.1734,7.6478],[-8.1621,7.6542],[-8.158,7.6582],[-8.1574,7.6624],[-8.1602,7.6722],[-8.1595,7.6763],[-8.1274,7.713],[-8.1226,7.7275],[-8.119,7.7608],[-8.1151,7.7769],[-8.1105,7.7824],[-8.1039,7.7863],[-8.0983,7.7919],[-8.0963,7.8019],[-8.1014,7.8128],[-8.1238,7.832],[-8.1312,7.8424],[-8.1289,7.8826],[-8.0791,7.9577],[-8.0689,7.9966],[-8.0672,8.0208],[-8.0691,8.0293]],[[-8.4148,7.6129],[-8.3909,7.5858]],[[-8.4854,7.558],[-8.44,7.5999],[-8.4148,7.6129]],[[-8.3368,7.5978],[-8.3032,7.5893],[-8.2654,7.5601],[-8.229,7.5443]],[[-8.3909,7.5858],[-8.3723,7.5873],[-8.3368,7.5978]],[[3.695,11.1191],[3.6867,11.1205],[3.6625,11.1431],[3.4833,11.3923],[3.4684,11.4195],[3.4667,11.4425],[3.4867,11.4963],[3.493,11.5115],[3.5049,11.5566],[3.5744,11.673],[3.5964,11.6958]],[[3.7569,10.4053],[3.7725,10.4076],[3.7877,10.4264],[3.7943,10.4449],[3.7954,10.4965],[3.8043,10.5232],[3.8299,10.5731],[3.8374,10.5999],[3.8372,10.6306],[3.8371,10.6548],[3.8321,10.6839],[3.823,10.7033],[3.8102,10.7105],[3.7961,10.7131],[3.7833,10.717],[3.7739,10.7281],[3.7645,10.7609],[3.7595,10.7716],[3.7519,10.7802],[3.7432,10.7875],[3.7351,10.7958],[3.73,10.8077],[3.7313,10.825],[3.753,10.8777],[3.7541,10.9071],[3.7335,10.9962],[3.7335,10.9965],[3.7233,11.0135],[3.7159,11.0319],[3.7118,11.0519],[3.7118,11.0735],[3.7221,11.1123],[3.7137,11.1203],[3.7056,11.1207],[3.7044,11.1208]],[[3.7044,11.1208],[3.695,11.1191]],[[3.6717,10.4421],[3.6928,10.4384],[3.7569,10.4053]],[[3.5131,9.8466],[3.5308,9.863],[3.5571,9.9106],[3.5895,9.9488],[3.5996,9.9687],[3.6058,10.0541],[3.6123,10.0703],[3.6278,10.085],[3.6424,10.0919],[3.6549,10.1011],[3.664,10.1231],[3.6648,10.1287],[3.6675,10.1466],[3.6646,10.1622],[3.6556,10.1748],[3.5876,10.2442],[3.5734,10.267],[3.5724,10.2857],[3.593,10.3309],[3.6182,10.3693],[3.6221,10.3812],[3.6232,10.4009],[3.626,10.4073],[3.6326,10.4167],[3.6521,10.4358],[3.6717,10.4421]],[[3.4529,9.8531],[3.5131,9.8466]],[[3.2991,9.634],[3.3316,9.652],[3.3386,9.6782],[3.3307,9.7086],[3.3184,9.7394],[3.3149,9.7591],[3.3171,9.7817],[3.3259,9.8017],[3.342,9.8136],[3.414,9.8428],[3.4529,9.8531]],[[3.2618,9.6386],[3.2814,9.635],[3.2991,9.634]],[[2.9714,9.0605],[2.9831,9.0606],[3.0514,9.0782],[3.076,9.0952],[3.0913,9.1264],[3.1246,9.229],[3.1452,9.2679],[3.1514,9.2886],[3.1515,9.3536],[3.1481,9.3703],[3.1353,9.4017],[3.1286,9.4296],[3.1326,9.4573],[3.1518,9.4882],[3.159,9.4935],[3.1751,9.4989],[3.1826,9.5053],[3.2436,9.5844],[3.2447,9.5896],[3.2394,9.6023],[3.2382,9.6091],[3.2457,9.6337],[3.2618,9.6386]],[[2.9299,9.0784],[2.9407,9.0771],[2.9517,9.0719],[2.9614,9.0653],[2.9714,9.0605]],[[2.8463,9.0508],[2.8597,9.0526],[2.8693,9.0597],[2.8778,9.0685],[2.8884,9.0754],[2.8992,9.0774],[2.9299,9.0784]],[[2.7692,9.057],[2.8463,9.0508]],[[2.7833,7.4192],[2.7865,7.4213],[2.7873,7.4269],[2.7896,7.4358],[2.7923,7.4776],[2.7702,7.5143],[2.7406,7.5494],[2.7206,7.5866],[2.7153,7.6258],[2.7176,7.6585],[2.7272,7.7933],[2.7244,7.8077],[2.7155,7.8221],[2.6915,7.8487],[2.6803,7.8773],[2.6722,7.8896],[2.6717,7.8934],[2.6711,7.8979],[2.6734,7.9056],[2.6836,7.9246],[2.6871,7.9335],[2.6909,7.9966],[2.7035,8.0599],[2.7057,8.1197],[2.7084,8.138],[2.7161,8.1549],[2.7266,8.1716],[2.7344,8.19],[2.735,8.2119],[2.7281,8.2332],[2.7085,8.2748],[2.7007,8.2969],[2.6971,8.3207],[2.6984,8.3399],[2.706,8.3813],[2.706,8.3905],[2.7035,8.409],[2.7037,8.4179],[2.709,8.4304],[2.729,8.4527],[2.7369,8.4645],[2.7448,8.4983],[2.7424,8.5275],[2.7229,8.7712],[2.7229,8.7723],[2.7232,8.7829],[2.7289,8.7905],[2.7457,8.7981],[2.7511,8.8034],[2.7523,8.8123],[2.7471,8.8277],[2.7459,8.8365],[2.7496,8.8519],[2.7621,8.8804],[2.7625,8.8957],[2.7587,8.9027],[2.7538,8.9044],[2.7495,8.9066],[2.7478,8.9148],[2.7502,8.9169],[2.7615,8.9337],[2.7647,8.9398],[2.7702,8.9672],[2.7724,9.0305],[2.7692,9.057]],[[2.7513,7.4236],[2.7617,7.4235],[2.7833,7.4192]],[[2.7038,6.3684],[2.7043,6.4293],[2.7119,6.474],[2.7154,6.4945],[2.7188,6.5043],[2.7373,6.558],[2.7394,6.5792],[2.7308,6.6214],[2.7311,6.6418],[2.7426,6.6633],[2.7607,6.6794],[2.773,6.6875],[2.7786,6.6988],[2.7753,6.7449],[2.7733,6.755],[2.7674,6.7596],[2.755,6.7607],[2.7448,6.7638],[2.7363,6.7698],[2.7287,6.78],[2.7236,6.7997],[2.7263,6.8214],[2.7369,6.8633],[2.732,6.9052],[2.7184,6.9436],[2.7151,6.9798],[2.7411,7.0158],[2.7527,7.0213],[2.7655,7.0251],[2.7758,7.0305],[2.7797,7.0413],[2.7739,7.0508],[2.7477,7.0722],[2.7391,7.083],[2.7353,7.096],[2.7363,7.1029],[2.7406,7.1096],[2.7498,7.1286],[2.7578,7.1389],[2.7611,7.1483],[2.7621,7.1622],[2.7412,7.4082],[2.7436,7.4192],[2.7513,7.4236]],[[5.5218,13.8803],[5.5543,13.8734],[5.8373,13.7637],[6.1204,13.6541]],[[5.2276,13.7413],[5.262,13.7477],[5.2735,13.7525],[5.3042,13.7739],[5.3181,13.7899],[5.3348,13.8267],[5.3463,13.8416],[5.3741,13.8553],[5.5218,13.8803]],[[4.8569,13.7741],[4.8798,13.764],[4.9024,13.743],[4.9251,13.7331],[4.9832,13.7297]],[[3.5964,11.6958],[3.6478,11.726],[3.6599,11.7381],[3.667,11.7597],[3.662,11.7795],[3.6497,11.7978],[3.6263,11.8225],[3.622,11.825],[3.6186,11.8284],[3.6129,11.839],[3.6097,11.8488],[3.6039,11.9056],[3.6085,11.922],[3.6196,11.9363],[3.6366,11.9536],[3.6536,11.9868],[3.6489,12.021],[3.624,12.0943],[3.6245,12.1377],[3.6515,12.269],[3.6416,12.518],[3.6457,12.5285],[3.8644,12.6897],[3.9291,12.7504],[4.0888,12.9962],[4.1203,13.2106],[4.1237,13.2336],[4.1258,13.473],[4.1905,13.475],[4.2205,13.4806],[4.2485,13.4941],[4.4058,13.6412],[4.4526,13.6738],[4.5067,13.6947],[4.6258,13.7232],[4.8249,13.7707],[4.8569,13.7741]],[[5.0844,13.7475],[5.2276,13.7413]],[[4.9832,13.7297],[5.0844,13.7475]],[[2.8443,12.3992],[2.8923,12.3571],[2.9126,12.3463],[2.9226,12.3356],[2.9304,12.3233],[2.9368,12.3009],[2.945,12.2925],[2.956,12.2868],[2.9678,12.2826],[3.001,12.2789],[3.0094,12.2763],[3.0131,12.2711],[3.0229,12.2525],[3.0634,12.1938],[3.2354,12.0395],[3.2385,12.0342],[3.252,12.0241],[3.2551,12.0188],[3.2576,11.9974],[3.2626,11.9747],[3.2699,11.9565],[3.2927,11.9187],[3.307,11.9024],[3.3155,11.8946],[3.3278,11.8864],[3.3416,11.8829]],[[2.7984,12.3812],[2.8086,12.3832],[2.8324,12.3841],[2.8443,12.3992]],[[2.7782,12.3819],[2.7984,12.3812]],[[2.7218,12.3443],[2.7323,12.3468],[2.7415,12.3541],[2.7575,12.3729],[2.7685,12.3801],[2.7782,12.3819]],[[2.7113,12.3512],[2.7218,12.3443]],[[2.6638,12.2916],[2.6729,12.2967],[2.6869,12.3184],[2.6902,12.3262],[2.6922,12.334],[2.6951,12.3412],[2.7004,12.3471],[2.7113,12.3512]],[[2.6286,12.3008],[2.6638,12.2916]],[[2.6036,12.2878],[2.6097,12.2908],[2.6217,12.2995],[2.6286,12.3008]],[[2.5861,12.294],[2.5901,12.2933],[2.5986,12.2883],[2.6036,12.2878]],[[2.5237,12.2692],[2.5312,12.2697],[2.5369,12.273],[2.546,12.2816],[2.5506,12.2845],[2.5861,12.294]],[[2.4951,12.2832],[2.5045,12.2818],[2.5163,12.2814],[2.5191,12.2791],[2.5206,12.2737],[2.5237,12.2692]],[[2.4777,12.2576],[2.4834,12.268],[2.488,12.2804],[2.4951,12.2832]],[[2.4595,12.2667],[2.467,12.265],[2.4726,12.2593],[2.4777,12.2576]],[[2.4309,12.248],[2.4437,12.2492],[2.4461,12.2518],[2.4544,12.263],[2.4595,12.2667]],[[2.4079,12.2489],[2.4309,12.248]],[[2.4494,11.9775],[2.4567,11.9791],[2.4573,11.9962],[2.4553,12.0087],[2.4488,12.0134],[2.4393,12.0156],[2.4286,12.0204],[2.4183,12.0287],[2.4112,12.0368],[2.4056,12.0467],[2.3719,12.1404],[2.3621,12.1962],[2.3612,12.2189],[2.37,12.2363],[2.3942,12.2472],[2.4079,12.2489]],[[2.439,11.9813],[2.4494,11.9775]],[[2.3987,11.9488],[2.4074,11.9512],[2.4141,11.9587],[2.422,11.9732],[2.4289,11.9804],[2.439,11.9813]],[[2.3893,11.9501],[2.3987,11.9488]],[[2.3902,11.8965],[2.3882,11.9068],[2.3765,11.9241],[2.3752,11.935],[2.3809,11.9479],[2.3893,11.9501]],[[3.3691,11.8973],[3.3809,11.895],[3.3917,11.8888],[3.4028,11.8853],[3.4477,11.858],[3.4843,11.8452],[3.4954,11.8375],[3.5035,11.83],[3.537,11.7829],[3.5437,11.7771],[3.5493,11.7738],[3.5537,11.7697],[3.5574,11.7618],[3.5625,11.746],[3.5662,11.7384],[3.5682,11.7295],[3.5717,11.7219],[3.5801,11.7174],[3.5894,11.7015],[3.5964,11.6958]],[[3.3416,11.8829],[3.3551,11.889],[3.3691,11.8973]],[[2.3902,11.8965],[2.3541,11.7998],[2.34,11.7739],[2.3016,11.7315],[2.2908,11.7032],[2.2902,11.6857],[2.2911,11.6748],[2.2874,11.6653],[2.2736,11.6521],[2.2201,11.6225],[2.147,11.5637],[2.0154,11.4316],[2.0108,11.4269],[1.9834,11.414]],[[1.5632,11.426],[1.565,11.4326],[1.5673,11.4467],[1.5693,11.4533],[1.4753,11.4608],[1.456,11.4647],[1.4396,11.4738]],[[1.4396,11.4738],[1.4338,11.4594],[1.4236,11.4539],[1.4232,11.4537],[1.4111,11.4498],[1.3981,11.4403],[1.3898,11.4284],[1.3886,11.42],[1.3981,11.3987],[1.3817,11.3887],[1.359,11.3789],[1.3391,11.3661],[1.3304,11.3472],[1.3362,11.33],[1.3459,11.3163],[1.3479,11.3035],[1.3304,11.2888]],[[1.9834,11.414],[1.948,11.4167],[1.9058,11.4328],[1.8798,11.4449],[1.8676,11.4466]],[[1.8676,11.4466],[1.858,11.4403]],[[1.858,11.4403],[1.8406,11.4455]],[[1.8406,11.4455],[1.8215,11.4416],[1.7822,11.426],[1.7633,11.4247]],[[1.7633,11.4247],[1.7191,11.4278]],[[1.7191,11.4278],[1.7035,11.4229],[1.6844,11.4139],[1.6382,11.4042],[1.6211,11.3953],[1.6016,11.3887]],[[1.6016,11.3887],[1.5806,11.4271]],[[1.5806,11.4271],[1.5632,11.426]],[[1.3025,11.2888],[1.2962,11.2996],[1.2845,11.3127],[1.2733,11.3182]],[[1.2733,11.3182],[1.2684,11.3062],[1.2705,11.2983],[1.2804,11.2887],[1.2826,11.2789],[1.2811,11.2711],[1.2684,11.2479]],[[1.3304,11.2888],[1.3235,11.2971],[1.3163,11.2999]],[[1.3163,11.2999],[1.3093,11.2971],[1.3025,11.2888]],[[1.1809,11.2614],[1.1722,11.2615],[1.1735,11.2666],[1.166,11.278],[1.1563,11.2855]],[[1.1563,11.2855],[1.1459,11.2699],[1.1356,11.2601],[1.1306,11.2476],[1.1493,11.2172],[1.1532,11.1832],[1.1584,11.1659]],[[1.2684,11.2479],[1.2352,11.2635],[1.219,11.268],[1.2001,11.269]],[[1.2001,11.269],[1.1914,11.267],[1.1862,11.2639],[1.1809,11.2614]],[[1.1584,11.1659],[1.1481,11.1695],[1.1281,11.1789],[1.1175,11.179]],[[1.1175,11.179],[1.113,11.1739],[1.1062,11.1557],[1.1004,11.1516],[1.0675,11.1443],[1.0623,11.1421],[1.0633,11.127]],[[1.0734,11.1339],[1.0828,11.1318],[1.0839,11.1277],[1.0821,11.1153],[1.0828,11.1107],[1.0856,11.1087],[1.0952,11.1044]],[[1.0633,11.127],[1.067,11.1283],[1.0734,11.1339]],[[1.097,11.1045],[1.0991,11.0926],[1.0993,11.0813],[1.1009,11.0704],[1.1073,11.0598],[1.1186,11.0482],[1.1175,11.0322],[1.1142,11.0277]],[[1.0952,11.1044],[1.097,11.1045]],[[1.035,11.0493],[1.0332,11.0516],[1.028,11.0613],[1.0251,11.0635],[1.0197,11.0657],[1.0146,11.0704],[1.0079,11.0751],[0.986,11.0785],[0.9814,11.0801]],[[0.9814,11.0801],[0.9769,11.0784],[0.9703,11.0695],[0.9644,11.0574],[0.9559,11.0447],[0.9524,11.0424],[0.9513,11.0323],[0.9518,11.0211],[0.9553,11.012],[0.9633,11.0083],[0.9691,11.0029],[0.97,10.9912],[0.9675,10.9795],[0.9633,10.9741]],[[1.1142,11.0277],[1.1068,11.0344],[1.0997,11.0444],[1.097,11.0493],[1.0869,11.0527],[1.0561,11.0561]],[[1.0561,11.0561],[1.0522,11.055],[1.0413,11.0496],[1.035,11.0493]],[[0.9633,10.9741],[0.9454,10.9743],[0.932,10.9761],[0.9015,10.9927]],[[0.2753,9.6856],[0.3019,9.6578]],[[0.2617,9.6279],[0.261,9.6572],[0.2753,9.6856]],[[-5.3655,10.2957],[-5.3857,10.2965],[-5.4025,10.3006],[-5.4162,10.3075],[-5.427,10.3169],[-5.4301,10.3229],[-5.4335,10.3319],[-5.4378,10.34],[-5.4438,10.3435],[-5.453,10.3439],[-5.4599,10.3452],[-5.4742,10.3503],[-5.4753,10.3677],[-5.4875,10.3929],[-5.5051,10.4156],[-5.5226,10.4255]],[[-5.2336,10.3157],[-5.2798,10.3224],[-5.2966,10.323]],[[-5.2966,10.323],[-5.3041,10.3184],[-5.3092,10.3115],[-5.3155,10.3053],[-5.3271,10.3026],[-5.3385,10.3022]],[[-5.1684,10.2913],[-5.2176,10.3199]],[[-5.2176,10.3199],[-5.2336,10.3157]],[[-5.3385,10.3022],[-5.3438,10.3031],[-5.3482,10.306],[-5.3533,10.3083]],[[-5.3533,10.3083],[-5.3571,10.3044],[-5.3608,10.2988],[-5.3655,10.2957]],[[-5.1049,10.2069],[-5.1171,10.208],[-5.1182,10.2125],[-5.1144,10.2183],[-5.1118,10.2237],[-5.1118,10.2787],[-5.1192,10.2935],[-5.1199,10.294],[-5.1357,10.3043],[-5.1521,10.3056]],[[-5.1521,10.3056],[-5.1595,10.2923],[-5.1684,10.2913]],[[-5.0907,10.1779],[-5.0902,10.1888],[-5.0816,10.2069],[-5.0844,10.2274]],[[-5.0844,10.2274],[-5.0873,10.2208],[-5.0919,10.2143],[-5.0978,10.2093],[-5.1049,10.2069]],[[-5.0372,10.0838],[-5.0483,10.0854],[-5.0565,10.0971],[-5.0429,10.1033],[-5.0494,10.1054],[-5.0551,10.108],[-5.0617,10.1101],[-5.0701,10.1102],[-5.061,10.1185],[-5.0376,10.1265],[-5.0395,10.1343],[-5.0647,10.1508],[-5.0707,10.161],[-5.064,10.179]],[[-5.064,10.179],[-5.0907,10.1779]],[[-4.928,9.8709],[-4.9367,9.874],[-4.9661,9.901],[-4.9673,9.9124],[-4.9529,9.9534],[-4.9548,9.9597],[-4.9657,9.9831],[-4.9769,9.9976],[-4.9814,10.0077],[-4.9602,10.0085],[-4.9564,10.022],[-4.9633,10.0403],[-4.9745,10.0555],[-4.9866,10.0633],[-4.9998,10.0695],[-5.0105,10.0791],[-5.0156,10.0971]],[[-5.0156,10.0971],[-5.0255,10.0887],[-5.0372,10.0838]],[[-3.6063,9.9182],[-3.6233,9.9217],[-3.634,9.9292],[-3.6405,9.9374],[-3.6482,9.9446],[-3.6617,9.9489]],[[-3.6617,9.9489],[-3.665,9.9466],[-3.6743,9.9353],[-3.6796,9.9322]],[[-3.6796,9.9322],[-3.6859,9.9335],[-3.699,9.9408],[-3.7065,9.9418]],[[-3.7065,9.9418],[-3.755,9.9359],[-3.7696,9.9313],[-3.7797,9.9247],[-3.7958,9.9077],[-3.8043,9.9014],[-3.8235,9.8957],[-3.8897,9.8945],[-3.8916,9.8939],[-3.9101,9.8885],[-3.9477,9.8644],[-3.9692,9.859],[-3.984,9.8512],[-3.9883,9.8348],[-3.9946,9.8208],[-4.0267,9.8203],[-4.035,9.8176],[-4.0503,9.8103],[-4.0514,9.8076],[-4.0517,9.8023],[-4.0537,9.7976],[-4.0599,9.7963]],[[-3.3483,9.887],[-3.359,9.8925],[-3.3766,9.9085],[-3.3892,9.9132],[-3.5465,9.9261]],[[-3.5465,9.9261],[-3.6063,9.9182]],[[-3.0591,9.7186],[-3.0771,9.7194],[-3.0946,9.7339],[-3.1044,9.7571],[-3.1169,9.8053],[-3.1369,9.8295],[-3.1601,9.8347],[-3.1826,9.8352],[-3.2,9.8454],[-3.2044,9.8654],[-3.2022,9.889],[-3.2026,9.9082],[-3.2148,9.9156]],[[-3.2148,9.9156],[-3.2302,9.9047],[-3.2641,9.8571],[-3.2779,9.8435],[-3.3017,9.8411]],[[-3.3017,9.8411],[-3.3118,9.8541],[-3.3136,9.8746],[-3.3127,9.8945],[-3.3172,9.9013]],[[-3.3172,9.9013],[-3.3275,9.8973],[-3.3392,9.8901],[-3.3483,9.887]],[[-4.8176,9.8365],[-4.8243,9.857],[-4.8385,9.8695],[-4.8583,9.8757],[-4.8817,9.8774],[-4.8901,9.8795],[-4.8935,9.8842],[-4.898,9.8889],[-4.9094,9.8911]],[[-4.9094,9.8911],[-4.9171,9.8865],[-4.9224,9.8775],[-4.928,9.8709]],[[-4.8004,9.7811],[-4.7919,9.7823],[-4.7759,9.788],[-4.7854,9.8048],[-4.7903,9.8275],[-4.7985,9.8425]],[[-4.7985,9.8425],[-4.8176,9.8365]],[[-4.0599,9.7963],[-4.0657,9.7981],[-4.0762,9.8038],[-4.133,9.8204]],[[-4.133,9.8204],[-4.1503,9.8183],[-4.1683,9.8048],[-4.197,9.765],[-4.2154,9.7549],[-4.2531,9.7501],[-4.2703,9.7439],[-4.2836,9.732],[-4.2792,9.7311],[-4.2675,9.7273],[-4.2978,9.6958],[-4.3033,9.6867],[-4.3035,9.6779],[-4.3005,9.6543],[-4.303,9.6417],[-4.3159,9.6166],[-4.3225,9.609],[-4.3225,9.6089]],[[-4.8101,9.7818],[-4.8004,9.7811]],[[-4.7964,9.7545],[-4.7993,9.7625],[-4.8012,9.7665],[-4.8101,9.7743],[-4.8101,9.7818]],[[-4.77,9.7374],[-4.7832,9.7584]],[[-4.7832,9.7584],[-4.7964,9.7545]],[[-4.6811,9.6821],[-4.6818,9.6828],[-4.6815,9.6867],[-4.6866,9.6924],[-4.7001,9.6979],[-4.7055,9.7021],[-4.7076,9.7098],[-4.7091,9.7203],[-4.7128,9.7268],[-4.7244,9.7371],[-4.73,9.7442],[-4.7333,9.7496],[-4.7383,9.7532],[-4.7486,9.7545]],[[-4.7486,9.7545],[-4.7586,9.7533],[-4.7621,9.7499],[-4.7605,9.7453],[-4.7548,9.7402],[-4.77,9.7374]],[[-4.4692,9.6518],[-4.5017,9.655],[-4.5159,9.6757],[-4.5136,9.694],[-4.5038,9.7199],[-4.5016,9.7371],[-4.504,9.742],[-4.51,9.7451],[-4.5178,9.7466]],[[-4.5178,9.7466],[-4.5359,9.7466],[-4.5391,9.7447],[-4.5399,9.7408],[-4.5431,9.734],[-4.548,9.7203],[-4.5484,9.7068],[-4.5522,9.6965],[-4.5667,9.6924]],[[-2.7637,9.3919],[-2.7876,9.3937],[-2.8104,9.4111],[-2.9102,9.5427],[-2.9599,9.6386],[-2.9778,9.6852],[-2.99,9.7084],[-3.0057,9.7242],[-3.0246,9.7286]],[[-3.0246,9.7286],[-3.0591,9.7186]],[[-4.5667,9.6924],[-4.5783,9.6965],[-4.5927,9.7178],[-4.604,9.7272]],[[-4.604,9.7272],[-4.6169,9.7139],[-4.6287,9.7077],[-4.6411,9.706]],[[-4.6411,9.706],[-4.6558,9.7061]],[[-4.6558,9.7061],[-4.6547,9.7035],[-4.6583,9.6976],[-4.6648,9.6909],[-4.6729,9.6856],[-4.6811,9.6821]],[[-4.3712,9.583],[-4.3849,9.5894],[-4.3916,9.6003],[-4.4002,9.6331],[-4.4091,9.6477],[-4.4334,9.6535]],[[-4.4334,9.6535],[-4.4692,9.6518]],[[-4.3225,9.6089],[-4.3497,9.62],[-4.365,9.6242]],[[-4.365,9.6242],[-4.368,9.6084],[-4.3678,9.592],[-4.3712,9.583]],[[-2.7449,9.4081],[-2.7637,9.3919]],[[-0.4679,15.0799],[-0.4586,15.0755],[-0.4356,15.0152],[-0.4257,15.0026],[-0.3977,15.0021]],[[-1.837,14.4796],[-1.7667,14.4832],[-1.6969,14.4961],[-1.3503,14.715],[-1.3077,14.7347],[-1.1167,14.7804],[-1.0786,14.7964],[-1.0433,14.8179],[-1.0431,14.8181],[-0.8364,14.996],[-0.8362,14.9961],[-0.7828,15.0484],[-0.7713,15.0566],[-0.7529,15.0697],[-0.7197,15.0785],[-0.5003,15.0797],[-0.4679,15.0799]],[[-0.2367,15.0656],[-0.167,15.0497],[-0.0334,14.9959]],[[-0.3977,15.0021],[-0.3615,15.0177],[-0.2992,15.0547],[-0.2367,15.0656]],[[-0.0332,14.9959],[0.2185,14.911]],[[-0.0334,14.9959],[-0.0332,14.9959]],[[-1.9191,14.4859],[-1.837,14.4796]],[[-2.1198,14.1488],[-2.1043,14.1512],[-2.085,14.1597],[-2.0359,14.1812],[-2.0273,14.1881],[-2.0234,14.1986],[-2.005,14.4442],[-1.9971,14.4707],[-1.967,14.4837],[-1.9191,14.4859]],[[-2.4617,14.2809],[-2.3856,14.2647],[-2.1519,14.1561],[-2.1198,14.1488]],[[-2.8673,14.0005],[-2.8409,14.043],[-2.6932,14.1232],[-2.6763,14.1417],[-2.6198,14.2036],[-2.5974,14.2223],[-2.5161,14.2679],[-2.4617,14.2809]],[[-2.9723,13.6245],[-2.965,13.6257],[-2.9305,13.6385],[-2.8952,13.6516],[-2.9234,13.746],[-2.9281,13.7996],[-2.9122,13.8379],[-2.8945,13.8666],[-2.8554,13.9962],[-2.857,13.9978],[-2.8586,14.0002],[-2.8616,14.0017]],[[-2.8616,14.0017],[-2.8673,14.0005]],[[-3.2671,13.717],[-3.2404,13.708],[-3.1958,13.6749],[-3.1679,13.6721]],[[-3.4616,13.1658],[-3.4495,13.1688],[-3.4395,13.1849],[-3.4406,13.2028],[-3.4523,13.2375],[-3.4485,13.2658],[-3.4265,13.2742],[-3.2624,13.2839],[-3.2486,13.2928],[-3.284,13.5422],[-3.2692,13.5791],[-3.2639,13.6027],[-3.2597,13.6583],[-3.2663,13.6823],[-3.287,13.6978],[-3.2671,13.717]],[[-3.1251,13.6773],[-3.1,13.6627],[-3.0822,13.6462],[-3.0773,13.6368],[-3.0745,13.6221],[-3.0675,13.6068]],[[-3.1679,13.6721],[-3.146,13.6767],[-3.1251,13.6773]],[[-3.0191,13.6375],[-2.9948,13.635],[-2.9864,13.6321],[-2.9793,13.6276],[-2.9723,13.6245]],[[-3.0675,13.6068],[-3.056,13.6108],[-3.0386,13.6296],[-3.027,13.6353],[-3.0191,13.6375]],[[-3.9777,13.4999],[-3.9741,13.4989],[-3.9703,13.4962],[-3.9655,13.4892],[-3.9645,13.4878],[-3.9593,13.4679],[-3.9561,13.4617],[-3.9475,13.4582],[-3.9234,13.4538],[-3.918,13.4511],[-3.9186,13.4403],[-3.9255,13.4363],[-3.9349,13.4349],[-3.9427,13.4319],[-3.963,13.4132],[-3.9716,13.4083],[-3.984,13.3965],[-3.9716,13.3868],[-3.9484,13.3808],[-3.9288,13.3803]],[[-4.1769,13.2724],[-4.166,13.2782],[-4.1471,13.2996],[-4.1316,13.3238],[-4.1147,13.3645],[-4.1043,13.3827],[-4.0875,13.398],[-4.0793,13.4021],[-4.0525,13.409],[-4.0435,13.4145],[-4.0282,13.4315],[-4.016,13.4358],[-4.0054,13.4395],[-3.9902,13.4491],[-3.9769,13.4606],[-3.9716,13.47],[-3.9795,13.4754],[-3.9922,13.4762],[-3.998,13.4805],[-3.9845,13.4961],[-3.9813,13.499],[-3.9777,13.4999]],[[-3.9089,13.382],[-3.8926,13.3789],[-3.8581,13.3655],[-3.8171,13.3547],[-3.7986,13.3471],[-3.7244,13.2888],[-3.6787,13.2617],[-3.5969,13.1994],[-3.5898,13.1974]],[[-3.9288,13.3803],[-3.9089,13.382]],[[-4.1958,13.2747],[-4.1865,13.2728],[-4.1769,13.2724]],[[-4.2462,13.1725],[-4.2348,13.1756],[-4.2278,13.1844],[-4.23,13.1931],[-4.2512,13.2048],[-4.2581,13.2141],[-4.2535,13.2291],[-4.2388,13.2468],[-4.2207,13.2628],[-4.2055,13.273],[-4.1958,13.2747]],[[-3.5766,13.1993],[-3.57,13.1968],[-3.5539,13.1803],[-3.545,13.1745],[-3.5385,13.1734]],[[-3.5898,13.1974],[-3.5766,13.1993]],[[-4.3102,13.1756],[-4.2462,13.1725]],[[-4.2972,12.7121],[-4.2763,12.7147],[-4.2576,12.7209],[-4.2455,12.7289],[-4.244,12.7299],[-4.2341,12.7424],[-4.2133,12.8072],[-4.2119,12.8192],[-4.2246,12.8645],[-4.2213,12.9213],[-4.2293,12.949],[-4.2478,12.9719],[-4.2769,12.9962],[-4.2897,13.0135],[-4.3164,13.0709],[-4.3454,13.0971],[-4.3511,13.1061],[-4.3511,13.1183],[-4.3459,13.1271],[-4.3396,13.1353],[-4.327,13.1686],[-4.3102,13.1756]],[[-3.5161,13.1739],[-3.4739,13.1676],[-3.4616,13.1658]],[[-3.5385,13.1734],[-3.5161,13.1739]],[[-4.3689,12.739],[-4.3394,12.7328],[-4.3109,12.716],[-4.2972,12.7121]],[[-4.4749,12.7158],[-4.4644,12.7173],[-4.4643,12.7173],[-4.4353,12.7284],[-4.402,12.7366],[-4.3689,12.739]],[[-4.4817,12.7174],[-4.4749,12.7158]],[[-4.4358,12.3017],[-4.4061,12.3075],[-4.4154,12.3503],[-4.4516,12.4353],[-4.4437,12.4594],[-4.4266,12.4797],[-4.4076,12.4979],[-4.3934,12.5164],[-4.3869,12.5302],[-4.3872,12.534],[-4.3926,12.5374],[-4.4014,12.5504],[-4.4225,12.5972],[-4.4391,12.6133],[-4.4825,12.6463],[-4.4913,12.6628],[-4.4853,12.7147],[-4.4817,12.7174]],[[-4.4625,12.3282],[-4.4527,12.3203],[-4.4448,12.3094],[-4.4358,12.3017]],[[-4.6837,12.0591],[-4.6736,12.0597],[-4.6537,12.0691],[-4.6527,12.0716],[-4.6487,12.082],[-4.6467,12.098],[-4.6361,12.1176],[-4.6003,12.1376],[-4.5702,12.1389],[-4.5605,12.1495],[-4.5855,12.1972],[-4.4974,12.2687],[-4.4935,12.2728],[-4.4923,12.2788],[-4.494,12.2901],[-4.4905,12.3058],[-4.4907,12.3138],[-4.4882,12.3207],[-4.4772,12.3273],[-4.4625,12.3282]],[[-4.704,12.0615],[-4.6837,12.0591]],[[-4.8068,11.9963],[-4.7895,12.0018],[-4.7613,12.0066],[-4.7469,12.0151],[-4.739,12.0252],[-4.7323,12.0373],[-4.7251,12.0501],[-4.7146,12.059],[-4.704,12.0615]],[[-4.8472,12.0131],[-4.8262,12.0127],[-4.8068,11.9963]],[[-4.89,11.9979],[-4.8472,12.0131]],[[-4.9538,12.0051],[-4.9321,12.0031],[-4.9107,11.9981],[-4.89,11.9979]],[[-5.0047,11.9807],[-4.9942,11.9832],[-4.9845,11.9886],[-4.9755,11.9963],[-4.9538,12.0051]],[[-5.016,11.9813],[-5.0047,11.9807]],[[-5.0343,11.9793],[-5.016,11.9813]],[[-5.0738,11.9805],[-5.0343,11.9793]],[[-5.2825,11.8364],[-5.2752,11.8374],[-5.2682,11.8431],[-5.2482,11.8704],[-5.2095,11.9015],[-5.1829,11.9309],[-5.1678,11.9437],[-5.137,11.9531],[-5.1039,11.9728],[-5.0893,11.9793],[-5.0738,11.9805]],[[-5.3002,11.8464],[-5.2934,11.8432],[-5.288,11.8391],[-5.2825,11.8364]],[[-5.3699,11.8202],[-5.3646,11.8218],[-5.3571,11.8296],[-5.3538,11.8317],[-5.319,11.8374],[-5.3148,11.8393],[-5.3111,11.8429],[-5.3065,11.846],[-5.3002,11.8464]],[[-5.3923,11.8324],[-5.3879,11.8308],[-5.3756,11.8222],[-5.3699,11.8202]],[[-5.3706,11.7911],[-5.3745,11.7952],[-5.4004,11.8102],[-5.406,11.8123],[-5.4122,11.8236],[-5.4124,11.8285],[-5.4059,11.8304],[-5.3923,11.8324]],[[-5.291,11.6045],[-5.3,11.6064],[-5.3076,11.6176],[-5.3078,11.629],[-5.3023,11.6399],[-5.2948,11.6503],[-5.2893,11.6604],[-5.2807,11.6995],[-5.2786,11.7215],[-5.2795,11.739],[-5.2871,11.7589],[-5.299,11.7727],[-5.3148,11.7825],[-5.3343,11.7908],[-5.3447,11.7939],[-5.3533,11.7945]],[[-5.3533,11.7945],[-5.3706,11.7911]],[[-5.5018,10.9702],[-5.4956,10.9962],[-5.5056,11.048],[-5.5073,11.0569],[-5.5042,11.0727],[-5.4898,11.0821],[-5.3901,11.0947],[-5.373,11.0998],[-5.3563,11.1069],[-5.3325,11.1216],[-5.3223,11.1355],[-5.3162,11.1763],[-5.3067,11.1994],[-5.2753,11.2307],[-5.2629,11.2516],[-5.2609,11.2677],[-5.2679,11.372],[-5.2635,11.3902],[-5.2482,11.4032],[-5.2264,11.4135],[-5.2183,11.4222],[-5.2192,11.4351],[-5.2246,11.458],[-5.2247,11.5408],[-5.2339,11.576],[-5.2695,11.6041],[-5.2807,11.6058]],[[-5.2807,11.6058],[-5.291,11.6045]],[[-5.5226,10.4255],[-5.5171,10.44],[-5.509,10.4909],[-5.5052,10.4992],[-5.4817,10.5353],[-5.4681,10.5878],[-5.4711,10.5974],[-5.4786,10.6042],[-5.4774,10.6196],[-5.4705,10.6356],[-5.4606,10.6446],[-5.4759,10.6504],[-5.4772,10.6588],[-5.4821,10.6752],[-5.4826,10.6842],[-5.4731,10.7379],[-5.468,10.7527],[-5.4612,10.76],[-5.453,10.764],[-5.4465,10.7687],[-5.445,10.7786],[-5.4453,10.787],[-5.4314,10.8447],[-5.4351,10.8569],[-5.447,10.878],[-5.4656,10.9479],[-5.4791,10.9755]],[[-5.4791,10.9755],[-5.5018,10.9702]],[[-8.4854,7.558],[-8.4436,7.5371],[-8.4256,7.5019],[-8.4051,7.4313],[-8.393,7.3343],[-8.3877,7.315],[-8.3811,7.303],[-8.364,7.2789],[-8.3575,7.2657],[-8.3497,7.2347],[-8.345,7.2268],[-8.333,7.2119],[-8.329,7.204],[-8.3285,7.1974],[-8.3306,7.1847],[-8.3297,7.1783],[-8.3262,7.1721],[-8.3115,7.1573],[-8.3054,7.1469],[-8.3026,7.1376],[-8.3012,7.1132],[-8.2841,7.0179],[-8.2866,6.9938],[-8.2941,6.9844],[-8.3146,6.9686],[-8.32,6.96],[-8.3212,6.9423],[-8.32,6.9258],[-8.3209,6.9102],[-8.3337,6.8826],[-8.3288,6.8751],[-8.3206,6.8697],[-8.3157,6.8638],[-8.315,6.8503],[-8.3166,6.8363],[-8.325,6.8063],[-8.3375,6.7773],[-8.3518,6.7554],[-8.4416,6.6553],[-8.4613,6.6334],[-8.5336,6.5763],[-8.5471,6.56]],[[-8.5471,6.56],[-8.5495,6.5601]],[[-8.5495,6.5601],[-8.5661,6.5509],[-8.5672,6.5506],[-8.5661,6.5491],[-8.5706,6.5351],[-8.5727,6.5308],[-8.5773,6.528],[-8.5894,6.5261],[-8.5941,6.5239],[-8.6187,6.4928],[-8.6018,6.4917],[-8.5921,6.4897]],[[-8.5681,6.4904],[-8.5565,6.487],[-8.5453,6.4772],[-8.5156,6.4376],[-8.4972,6.4314]],[[-8.5921,6.4897],[-8.5681,6.4904]],[[-8.4675,6.4871],[-8.4612,6.4829],[-8.4496,6.4679],[-8.4183,6.4512],[-8.4051,6.4363],[-8.4065,6.4305],[-8.4139,6.4242],[-8.419,6.4076],[-8.4172,6.3982],[-8.4082,6.3799],[-8.406,6.3722],[-8.411,6.3632],[-8.4202,6.3581],[-8.4237,6.352],[-8.4118,6.34]],[[-8.4972,6.4314],[-8.4848,6.4416],[-8.4769,6.4601],[-8.4724,6.4787],[-8.4675,6.4871]],[[-8.3529,6.3611],[-8.3426,6.357],[-8.3329,6.346],[-8.3224,6.3365]],[[-8.366,6.3501],[-8.3529,6.3611]],[[-8.3888,6.3551],[-8.3766,6.3547],[-8.366,6.3501]],[[-8.4118,6.34],[-8.4011,6.3504],[-8.3888,6.3551]],[[-8.31,6.3446],[-8.3027,6.3406],[-8.2977,6.3326],[-8.2966,6.3244],[-8.2966,6.3175],[-8.2951,6.3134],[-8.286,6.3101],[-8.2085,6.2925],[-8.1966,6.2881],[-8.1857,6.2818],[-8.1791,6.2769],[-8.1706,6.274]],[[-8.3224,6.3365],[-8.3175,6.337],[-8.3142,6.3415],[-8.31,6.3446]],[[-8.033,6.3018],[-8.0157,6.2978],[-7.9994,6.2867],[-7.9349,6.2714],[-7.9295,6.2708]],[[-8.1706,6.274],[-8.1544,6.2742],[-8.1406,6.2776],[-8.1183,6.2899],[-8.1066,6.2947],[-8.0601,6.3011],[-8.033,6.3018]],[[-7.9205,6.2738],[-7.9144,6.2717],[-7.9127,6.2684],[-7.91,6.2568],[-7.9066,6.252],[-7.8621,6.2164],[-7.8466,6.1975],[-7.8441,6.184],[-7.8574,6.1454],[-7.862,6.1244],[-7.8645,6.1017],[-7.8618,6.0815],[-7.8509,6.0676]],[[-7.9295,6.2708],[-7.9252,6.2725],[-7.9205,6.2738]],[[-7.8284,6.0807],[-7.8194,6.0801],[-7.8097,6.0712],[-7.8057,6.062],[-7.8024,6.0392],[-7.7992,6.0357],[-7.7939,6.0341],[-7.7887,6.0315],[-7.7865,6.0251],[-7.7886,6.0198],[-7.7977,6.0148],[-7.8,6.0102],[-7.8007,5.9817],[-7.7996,5.9745],[-7.7866,5.9582],[-7.7471,5.9376],[-7.735,5.9256],[-7.7172,5.9008]],[[-7.8509,6.0676],[-7.8505,6.0722],[-7.8409,6.0774],[-7.8284,6.0807]],[[-7.6805,5.9409],[-7.674,5.9357],[-7.6631,5.9231],[-7.6483,5.9113],[-7.6306,5.9086],[-7.6291,5.9049],[-7.6085,5.8937],[-7.6058,5.8931],[-7.5842,5.8837],[-7.5791,5.8772],[-7.5872,5.8668],[-7.5795,5.8603],[-7.5663,5.8437],[-7.5591,5.8399]],[[-7.7172,5.9008],[-7.7032,5.9079],[-7.6915,5.9277],[-7.6805,5.9409]],[[-7.4786,5.8599],[-7.4465,5.8459],[-7.442,5.8113],[-7.4486,5.7691],[-7.4495,5.7324],[-7.431,5.654],[-7.418,5.6278],[-7.3967,5.5851],[-7.3841,5.569]],[[-7.4944,5.8062],[-7.4866,5.8138],[-7.4817,5.8302],[-7.4786,5.8599]],[[-7.5278,5.8588],[-7.5311,5.842],[-7.5156,5.8392],[-7.5088,5.8262],[-7.5039,5.8121],[-7.4944,5.8062]],[[-7.5591,5.8399],[-7.5476,5.8454],[-7.5352,5.8558],[-7.5278,5.8588]],[[-7.3841,5.569],[-7.4051,5.5724]],[[-7.4051,5.5724],[-7.4119,5.5604],[-7.4071,5.5414],[-7.3936,5.524],[-7.4135,5.5228]],[[-7.4135,5.5228],[-7.42,5.5231]],[[-7.42,5.5231],[-7.4099,5.5134],[-7.4081,5.5118],[-7.4135,5.5035],[-7.4251,5.4942],[-7.4324,5.4796],[-7.4317,5.4419],[-7.4362,5.4313]],[[-7.4362,5.4313],[-7.4502,5.4387]],[[-7.4502,5.4387],[-7.45,5.4228],[-7.446,5.4049],[-7.4391,5.3878],[-7.4297,5.3743],[-7.4149,5.366]],[[-7.4044,5.368],[-7.3969,5.3664],[-7.3915,5.3477],[-7.3888,5.3284],[-7.3898,5.3171],[-7.3956,5.3068],[-7.4077,5.2899],[-7.4101,5.2832],[-7.4138,5.2667],[-7.4188,5.2605],[-7.4285,5.2561]],[[-7.4149,5.366],[-7.4044,5.368]],[[-7.4285,5.2561],[-7.4308,5.26],[-7.4309,5.2675],[-7.4341,5.2741],[-7.4352,5.2793],[-7.4301,5.2843],[-7.4285,5.2882],[-7.4399,5.2902]],[[-7.4399,5.2902],[-7.4424,5.2874],[-7.4682,5.2735],[-7.4757,5.2642],[-7.4799,5.2552],[-7.4905,5.2222],[-7.4823,5.1751],[-7.483,5.1582],[-7.4889,5.1407],[-7.5158,5.0918]],[[-7.5158,5.0918],[-7.5299,5.0974],[-7.5468,5.0977]],[[-7.5468,5.0977],[-7.5632,5.0902],[-7.5758,5.0721],[-7.5782,5.0547],[-7.5704,4.9969]],[[-7.5702,4.9969],[-7.5716,4.9754],[-7.5646,4.9616],[-7.5553,4.9484],[-7.5496,4.9291],[-7.5495,4.9139]],[[-7.5704,4.9969],[-7.5702,4.9969]],[[-7.5495,4.9139],[-7.5535,4.9142],[-7.5618,4.9202],[-7.575,4.9216]],[[-7.575,4.9216],[-7.6055,4.8974],[-7.606,4.888],[-7.5988,4.8571],[-7.6002,4.8458],[-7.6059,4.8251],[-7.606,4.8174],[-7.606,4.8162],[-7.601,4.8046],[-7.5934,4.7974],[-7.5856,4.7915],[-7.5796,4.7843],[-7.5769,4.7753],[-7.5725,4.7234],[-7.5769,4.5093],[-7.5754,4.5003],[-7.5727,4.4911],[-7.5709,4.4807],[-7.5728,4.4554],[-7.5657,4.4352],[-7.5643,4.4258],[-7.5674,4.4159],[-7.5779,4.3973],[-7.5792,4.3871],[-7.5738,4.3754],[-7.5407,4.3528]],[[-8.4854,7.558],[-8.5156,7.5772],[-8.5478,7.6008],[-8.5665,7.6234],[-8.5728,7.6507],[-8.5674,7.6882],[-8.6866,7.6944]],[[-8.6866,7.6944],[-8.6945,7.6744],[-8.7207,7.6427],[-8.7276,7.622],[-8.73,7.5874],[-8.7315,7.5818],[-8.7374,7.5714],[-8.7392,7.5657],[-8.738,7.5595],[-8.734,7.5577],[-8.7295,7.5564],[-8.7268,7.5518],[-8.7257,7.5285],[-8.7296,7.5087],[-8.7395,7.4906],[-8.7565,7.4724],[-8.7844,7.4557],[-8.7904,7.4508],[-8.794,7.4415],[-8.7955,7.4211],[-8.7992,7.4122],[-8.8077,7.4045],[-8.824,7.3998],[-8.8334,7.3939],[-8.8516,7.3715],[-8.8606,7.3576],[-8.8654,7.3469],[-8.8633,7.3299],[-8.8559,7.3119],[-8.8514,7.2929],[-8.8578,7.273],[-8.8689,7.2666],[-8.9122,7.2502],[-8.9254,7.2486]],[[-8.9254,7.2486],[-8.9444,7.2787],[-8.9572,7.2865]],[[-8.9572,7.2865],[-8.9626,7.263]],[[-8.9626,7.263],[-8.9731,7.2677]],[[-8.9731,7.2677],[-8.9777,7.2662],[-8.981,7.2506],[-8.9855,7.25],[-9.0076,7.2435]],[[-6.256,10.5116],[-6.2613,10.5141],[-6.2609,10.5292],[-6.2562,10.5372],[-6.2379,10.5519],[-6.2314,10.5602],[-6.23,10.572],[-6.2329,10.5841],[-6.2387,10.598],[-6.2307,10.6069],[-6.2198,10.6119],[-6.2098,10.6178],[-6.2044,10.6296],[-6.2078,10.6375],[-6.2169,10.6451],[-6.2278,10.6509],[-6.2466,10.6576],[-6.2495,10.6656],[-6.2444,10.7069],[-6.2458,10.7207],[-6.256,10.7265]],[[-6.256,10.7265],[-6.28,10.7233],[-6.3036,10.7132],[-6.3222,10.7005],[-6.3417,10.6914]],[[-6.3417,10.6914],[-6.3675,10.6923],[-6.3881,10.6955]],[[-6.3881,10.6955],[-6.4098,10.6944],[-6.427,10.6861],[-6.434,10.6679],[-6.4359,10.6287],[-6.4307,10.615],[-6.4191,10.6077],[-6.4067,10.6019],[-6.3992,10.5925],[-6.4028,10.5691],[-6.4215,10.5566],[-6.446,10.5523]],[[-6.446,10.5523],[-6.467,10.5535],[-6.5214,10.5642],[-6.5376,10.5697],[-6.5781,10.5911],[-6.5986,10.6049],[-6.6136,10.6185],[-6.634,10.653],[-6.6471,10.6613]],[[-6.6471,10.6613],[-6.6692,10.6542],[-6.6679,10.6509],[-6.6819,10.6274],[-6.6842,10.6266],[-6.689,10.6079],[-6.6911,10.5894],[-6.6892,10.5809],[-6.6856,10.574],[-6.6828,10.566],[-6.6878,10.5205],[-6.6975,10.4883],[-6.6958,10.4712],[-6.6831,10.4517],[-6.6756,10.4479],[-6.6646,10.4446],[-6.654,10.44],[-6.6478,10.4327],[-6.6479,10.4219],[-6.6531,10.4131],[-6.6596,10.4054],[-6.664,10.398],[-6.6683,10.3658],[-6.6689,10.361],[-6.6774,10.349],[-6.7003,10.3417]],[[-6.2157,10.4926],[-6.2224,10.4946],[-6.2282,10.5006],[-6.2335,10.5076],[-6.2387,10.5127],[-6.2477,10.5138]],[[-6.2477,10.5138],[-6.256,10.5116]],[[-6.2144,10.3078],[-6.2062,10.3108],[-6.204,10.316],[-6.2054,10.3226],[-6.2078,10.3285],[-6.2083,10.332],[-6.1839,10.3589],[-6.1988,10.3708],[-6.1957,10.3892],[-6.1806,10.4202],[-6.1969,10.4392],[-6.2004,10.4488],[-6.1982,10.4574],[-6.1875,10.4754],[-6.1858,10.4813],[-6.1903,10.4911],[-6.1961,10.4947]],[[-6.1961,10.4947],[-6.2042,10.4944],[-6.2157,10.4926]],[[-7.4314,10.3337],[-7.4444,10.3342],[-7.4458,10.3404],[-7.4433,10.35],[-7.4447,10.3608],[-7.4615,10.3886],[-7.4655,10.3986],[-7.4662,10.4075],[-7.4654,10.418],[-7.4662,10.4295],[-7.4716,10.4411],[-7.4802,10.4503],[-7.4898,10.4561],[-7.5015,10.4586]],[[-7.5015,10.4586],[-7.5158,10.4578],[-7.5396,10.4276],[-7.5474,10.4205],[-7.5564,10.4173]],[[-5.5226,10.4255],[-5.5497,10.4356],[-5.5717,10.4499],[-5.5844,10.4542]],[[-5.5844,10.4542],[-5.594,10.4539],[-5.6218,10.4469],[-5.6776,10.4415],[-5.8063,10.4135],[-5.8781,10.3761],[-5.8933,10.365],[-5.9048,10.3483],[-5.909,10.3301],[-5.9047,10.2753],[-5.9164,10.2666]],[[-7.5844,10.4165],[-7.6078,10.4187],[-7.6437,10.4405]],[[-7.6437,10.4405],[-7.6644,10.4371],[-7.67,10.4288],[-7.674,10.4164],[-7.679,10.4059],[-7.6879,10.4031]],[[-7.5564,10.4173],[-7.5743,10.4175]],[[-7.5743,10.4175],[-7.5844,10.4165]],[[-7.6879,10.4031],[-7.6998,10.4045]],[[-7.6998,10.4045],[-7.7086,10.4025],[-7.7223,10.3913],[-7.7223,10.3845],[-7.7268,10.3829],[-7.736,10.3783],[-7.724,10.3636],[-7.7353,10.3471],[-7.7574,10.334],[-7.7776,10.3299],[-7.7644,10.3129],[-7.7763,10.2927],[-7.7783,10.2783],[-7.7838,10.2704],[-7.7912,10.2658],[-7.7977,10.2603],[-7.8012,10.2495],[-7.8051,10.2418],[-7.829,10.2117],[-7.8387,10.2037],[-7.8474,10.1979],[-7.8572,10.1944],[-7.8828,10.1908],[-7.8923,10.1848],[-7.911,10.1694],[-7.929,10.161],[-7.9499,10.1554],[-7.9709,10.1551]],[[-6.7003,10.3417],[-6.7226,10.344],[-6.7602,10.3661],[-6.7821,10.373]],[[-6.7821,10.373],[-6.8039,10.3709],[-6.8628,10.3438],[-6.882,10.3413]],[[-6.882,10.3413],[-6.9387,10.3483]],[[-6.9387,10.3483],[-6.9612,10.3449],[-6.9731,10.3323],[-6.9971,10.2528],[-6.9949,10.2394],[-6.9843,10.2304],[-6.9712,10.2221],[-6.9616,10.211],[-6.9594,10.1855],[-6.9716,10.1644],[-6.9924,10.1491],[-7.0158,10.1409],[-7.0405,10.1401]],[[-7.0405,10.1401],[-7.0582,10.156],[-7.0731,10.1785],[-7.0895,10.1976],[-7.1064,10.2073],[-7.2047,10.2345],[-7.284,10.2466],[-7.347,10.2479],[-7.3634,10.2522],[-7.3718,10.2645],[-7.3727,10.2886],[-7.3663,10.3294],[-7.3723,10.3448],[-7.395,10.3462]],[[-7.395,10.3462],[-7.4222,10.3361],[-7.4314,10.3337]],[[-6.2283,10.3161],[-6.2259,10.3145],[-6.2211,10.3104],[-6.2144,10.3078]],[[-6.24,10.2519],[-6.2433,10.289],[-6.2407,10.3026],[-6.2283,10.3161]],[[-5.9164,10.2666],[-5.963,10.2827]],[[-5.963,10.2827],[-5.9747,10.2736],[-5.9783,10.2486],[-5.9852,10.2273],[-5.9971,10.2082],[-6.0159,10.1899],[-6.1053,10.1893]],[[-6.1053,10.1893],[-6.1809,10.2158],[-6.1943,10.2242],[-6.214,10.2479],[-6.2248,10.255]],[[-6.2248,10.255],[-6.24,10.2519]],[[-7.9709,10.1551],[-7.9897,10.162]],[[-9.0278,12.4048],[-8.9938,12.3875],[-8.9759,12.3687],[-8.9647,12.3463],[-8.9631,12.3242],[-8.9721,12.302],[-8.9853,12.2821],[-8.9959,12.261],[-8.9976,12.2348],[-8.9943,12.2248],[-8.9845,12.2089],[-8.9812,12.1989],[-8.9738,12.1876]],[[-8.942,12.1958],[-8.927,12.1874],[-8.9139,12.1699],[-8.906,12.1477],[-8.907,12.1254],[-8.922,12.086],[-8.9263,12.0643],[-8.9221,12.0454],[-8.9037,12.0304],[-8.8817,12.0292]],[[-8.9738,12.1876],[-8.9617,12.188],[-8.942,12.1958]],[[-8.8588,12.0318],[-8.838,12.0282],[-8.8198,12.0127],[-8.8155,11.9957],[-8.8164,11.9768],[-8.8149,11.9554],[-8.81,11.9444],[-8.8032,11.9349],[-8.7978,11.9251],[-8.797,11.9132],[-8.8472,11.6579]],[[-8.8817,12.0292],[-8.8588,12.0318]],[[-8.8285,11.6592],[-8.8117,11.6517],[-8.7952,11.6419],[-8.7772,11.6359]],[[-8.8472,11.6579],[-8.8285,11.6592]],[[-8.7265,11.6495],[-8.7129,11.6401],[-8.6907,11.568],[-8.6873,11.55],[-8.679,11.5298],[-8.668,11.5109],[-8.6568,11.4964],[-8.6022,11.4721],[-8.5752,11.4703]],[[-8.7772,11.6359],[-8.7565,11.6388],[-8.7404,11.6462],[-8.7265,11.6495]],[[-8.5496,11.4901],[-8.544,11.4776],[-8.5394,11.4563],[-8.5355,11.4381],[-8.5276,11.4234],[-8.5158,11.419],[-8.4881,11.4182],[-8.4277,11.4001],[-8.3976,11.3859],[-8.3753,11.3677],[-8.3934,11.363],[-8.4141,11.3535],[-8.4261,11.3405],[-8.418,11.3255],[-8.3996,11.3222]],[[-8.5752,11.4703],[-8.5496,11.4901]],[[-8.3813,11.3251],[-8.371,11.3206],[-8.3767,11.2947],[-8.3884,11.2814],[-8.4067,11.2753],[-8.4269,11.2742]],[[-8.3996,11.3222],[-8.3813,11.3251]],[[-8.4269,11.2742],[-8.4446,11.2763],[-8.4832,11.2849]],[[-8.4832,11.2849],[-8.4926,11.2778],[-8.5031,11.2554],[-8.5023,11.2516],[-8.4992,11.2467],[-8.497,11.2407],[-8.4988,11.2335],[-8.5021,11.2312],[-8.5121,11.2303],[-8.5156,11.2291],[-8.5241,11.2238],[-8.5446,11.215],[-8.5518,11.2107],[-8.5639,11.1934],[-8.5697,11.1578],[-8.5782,11.1421],[-8.587,11.1375],[-8.6072,11.1372],[-8.6154,11.1341],[-8.6246,11.122],[-8.6249,11.1122],[-8.6224,11.1026],[-8.6231,11.0913],[-8.6337,11.0713],[-8.6798,11.0252],[-8.6887,11.0126],[-8.6969,10.996],[-8.7007,10.9785],[-8.6962,10.9627],[-8.6809,10.9523]],[[-8.3693,11.0542],[-8.3473,11.0431],[-8.3266,11.0238],[-8.3111,11.0008],[-8.3051,10.9782],[-8.3036,10.8749],[-8.3059,10.8563],[-8.3118,10.8472],[-8.3189,10.8395],[-8.3398,10.7839],[-8.3419,10.7632],[-8.3156,10.7531],[-8.3111,10.7353],[-8.2955,10.5374],[-8.2844,10.5112],[-8.2539,10.4698],[-8.2289,10.4234],[-8.2106,10.4141],[-8.189,10.4136]],[[-8.4105,11.0419],[-8.4006,11.0433],[-8.3813,11.0539],[-8.3693,11.0542]],[[-8.5058,11.0528],[-8.4891,11.0527],[-8.469,11.0464]],[[-8.5933,10.9647],[-8.5756,10.9667],[-8.5595,10.9716],[-8.5416,10.9838],[-8.5316,10.999],[-8.5058,11.0528]],[[-8.4382,11.0497],[-8.4291,11.0483],[-8.4105,11.0419]],[[-8.469,11.0464],[-8.4487,11.0471],[-8.4382,11.0497]],[[-8.6282,10.9678],[-8.6114,10.9651],[-8.5933,10.9647]],[[-8.6809,10.9523],[-8.6652,10.957],[-8.648,10.9658],[-8.6282,10.9678]],[[-8.1421,10.4296],[-8.1354,10.4273],[-8.1254,10.4117],[-8.1221,10.3995],[-8.1209,10.373],[-8.1155,10.3602],[-8.0961,10.3467],[-8.0701,10.3419],[-8.0157,10.3393],[-7.9963,10.3283],[-7.9815,10.307],[-7.9712,10.2818],[-7.9646,10.2589],[-7.9626,10.2333],[-7.968,10.21],[-7.9897,10.162]],[[-8.189,10.4136],[-8.166,10.4181],[-8.1506,10.4245],[-8.1421,10.4296]],[[3.5071,15.354],[3.5165,15.4692],[3.5265,15.496],[3.6141,15.5477],[3.6922,15.6314],[3.7289,15.6509],[3.8084,15.6656],[3.8461,15.6853],[3.8712,15.7148],[3.8738,15.7209],[3.8865,15.7501],[3.8945,15.7887],[3.9035,15.8863],[3.9099,15.9048],[3.9251,15.9276],[3.9832,15.984],[3.9842,15.9869],[3.9848,15.9898],[3.9846,15.9959],[3.9847,15.9974],[3.9845,15.9988],[3.984,16.0001],[3.9832,16.0013],[3.9708,16.0309],[3.9669,16.0585],[3.9712,16.0861],[4.0606,16.2983],[4.0756,16.3211],[4.0948,16.3408],[4.1182,16.3583],[4.1617,16.38],[4.1759,16.3926],[4.184,16.4161],[4.1834,16.5265],[4.183,16.6127],[4.1823,16.7465],[4.182,16.8096],[4.1846,16.8185],[4.1976,16.8385],[4.202,16.8489],[4.1966,16.9471],[4.1978,16.9652],[4.2037,16.9828],[4.2117,16.986],[4.2223,16.9866],[4.2356,16.9959],[4.2353,17.1008]],[[3.073,15.4272],[3.1923,15.4075],[3.3804,15.3763],[3.4833,15.3593],[3.4888,15.3575],[3.5071,15.354]],[[0.6701,14.9397],[0.6838,14.9409],[0.7114,14.9475],[0.7399,14.9583],[0.7692,14.9691],[0.9221,14.974],[0.9493,14.9796],[0.9737,14.9913],[1.0575,15.0671],[1.1231,15.1263],[1.2032,15.1988],[1.2709,15.2599],[1.2978,15.2757],[1.3315,15.2836],[1.4052,15.2861],[1.5017,15.2894],[1.5984,15.2926],[1.6949,15.2957],[1.7914,15.299],[1.8881,15.3022],[1.9846,15.3054],[2.0814,15.3086],[2.1779,15.3118],[2.2745,15.315],[2.371,15.3182],[2.4677,15.3214],[2.5642,15.3246],[2.661,15.3278],[2.7575,15.3311],[2.8541,15.3342],[2.9507,15.3375],[3.0002,15.3391],[3.0057,15.3523],[3.0058,15.3893],[3.0078,15.4077],[3.0103,15.4177],[3.0175,15.4228],[3.0335,15.4265],[3.073,15.4272]],[[0.2213,14.9959],[0.3532,14.9634],[0.387,14.9632]],[[0.2185,14.911],[0.2128,14.9607],[0.2132,14.9854],[0.2213,14.9959]],[[0.5148,14.9936],[0.6701,14.9397]],[[0.387,14.9632],[0.4188,14.9699],[0.4835,14.9921],[0.5148,14.9936]],[[-5.6773,17.0193],[-5.6673,16.9291],[-5.6575,16.8388],[-5.6476,16.7486],[-5.6376,16.6584],[-5.6277,16.5681],[-5.6233,16.5278],[-5.6146,16.5119],[-5.6059,16.4959],[-5.5665,16.4695],[-5.5297,16.445],[-5.4854,16.4154],[-5.4459,16.389],[-5.405,16.3617],[-5.3649,16.3349],[-5.3601,16.3299],[-5.3553,16.3248],[-5.3543,16.3184],[-5.3533,16.312],[-5.3589,16.2824],[-5.3772,16.1878],[-5.3955,16.0932],[-5.4138,15.9986],[-5.432,15.9039],[-5.4508,15.8068],[-5.4696,15.7098],[-5.4884,15.6127],[-5.5071,15.5155],[-5.5081,15.5107],[-5.5088,15.5069],[-5.509,15.5057],[-5.5099,15.5008],[-5.511,15.4959],[-5.511,15.4957],[-5.511,15.4954],[-5.511,15.4953],[-5.511,15.4951],[-5.511,15.4948],[-5.511,15.4947],[-5.511,15.4945],[-5.511,15.4943],[-5.511,15.4942],[-5.5111,15.494],[-5.5113,15.494],[-5.5113,15.4939],[-5.5114,15.4937],[-5.5115,15.4937],[-5.5116,15.4935],[-5.5117,15.4934],[-5.5119,15.4934],[-5.5122,15.4934],[-5.5123,15.4934],[-5.5126,15.4934],[-5.5128,15.4934],[-5.513,15.4934],[-5.5131,15.4934],[-5.5134,15.4934]],[[-8.9112,15.4954],[-9.0032,15.4955]],[[-8.4702,15.4953],[-8.6039,15.4954],[-8.6893,15.4954]],[[-8.6893,15.4954],[-8.7693,15.4954],[-8.8434,15.4954],[-8.9112,15.4954]],[[-7.1745,15.4948],[-7.3459,15.4949],[-7.5172,15.495],[-7.6872,15.495],[-7.8545,15.4951],[-8.0178,15.4951],[-8.1758,15.4952],[-8.327,15.4953]],[[-8.327,15.4953],[-8.4702,15.4953]],[[-5.9382,15.4944],[-6.0108,15.4944],[-6.0878,15.4945],[-6.2216,15.4945],[-6.3201,15.4945],[-6.3647,15.4946],[-6.516,15.4946],[-6.6739,15.4947],[-6.8372,15.4947],[-7.0045,15.4948]],[[-7.0045,15.4948],[-7.1745,15.4948]],[[-5.5134,15.4934],[-5.5137,15.4935],[-5.5141,15.4936],[-5.5144,15.4937],[-5.5147,15.4938],[-5.515,15.4939],[-5.5153,15.494],[-5.5156,15.4941],[-5.516,15.4942],[-5.6732,15.4943],[-5.8073,15.4944]],[[-5.8073,15.4944],[-5.8703,15.4944],[-5.9382,15.4944]],[[0.2185,14.911],[0.2208,14.8882],[0.2119,14.8748],[0.198,14.8638],[0.1858,14.8482],[0.1841,14.8196],[0.2131,14.7616],[0.2197,14.7312],[0.1529,14.5467],[0.1588,14.4961],[0.1887,14.4477],[0.2024,14.4355],[0.3464,14.3076],[0.3888,14.2516],[0.3916,14.2459],[0.3906,14.2376],[0.3811,14.2257],[0.3774,14.2166],[0.3722,14.1856],[0.3674,14.1738],[0.3435,14.1375],[0.3392,14.1258],[0.3436,14.1143],[0.3563,14.0957],[0.3625,14.0889],[0.3687,14.0842],[0.3742,14.0789],[0.3785,14.0704],[0.3773,14.0639],[0.3691,14.0479],[0.3692,14.0391],[0.3784,14.0288],[0.3914,14.0226],[0.4019,14.0138],[0.4039,13.9961],[0.4119,13.9784],[0.4284,13.9675],[0.4459,13.9586],[0.4567,13.9468],[0.4563,13.9381],[0.4481,13.9201],[0.4486,13.9096],[0.4548,13.9024],[0.4757,13.8889],[0.4835,13.8803],[0.492,13.8618],[0.4999,13.851],[0.5041,13.8454],[0.5193,13.8316],[0.553,13.81],[0.5632,13.7968],[0.5745,13.785],[0.5937,13.7781],[0.6005,13.7687],[0.5945,13.7499],[0.5848,13.729],[0.5805,13.7138],[0.5943,13.6889],[0.6207,13.68]],[[0.7534,13.6841],[0.7635,13.682],[0.7664,13.6751],[0.7662,13.667],[0.767,13.6609],[0.7663,13.6572],[0.7629,13.653],[0.7637,13.6464],[0.7757,13.6353],[0.7953,13.626],[0.8131,13.625]],[[0.6207,13.68],[0.7534,13.6841]],[[0.8507,13.6286],[0.8969,13.6149],[0.951,13.5832],[0.9914,13.5411],[0.9966,13.4961],[1.0153,13.4657],[1.0482,13.4419],[1.1572,13.3926],[1.175,13.3869],[1.2174,13.3818],[1.2343,13.3776],[1.2496,13.3671],[1.2687,13.3461],[1.2415,13.3355]],[[0.8131,13.625],[0.8507,13.6286]],[[1.1607,13.3113],[1.1385,13.3204],[1.0847,13.3336],[1.0047,13.3648],[0.9835,13.3684]],[[0.9835,13.3684],[0.9704,13.3283],[0.9708,13.2435],[0.9713,13.1494],[0.9717,13.0858],[0.9718,13.0673],[0.9746,13.0483],[0.9835,13.0324],[1.0123,13.0169],[1.0838,13.011],[1.114,12.9962],[1.1709,12.9492],[1.2308,12.8998],[1.3048,12.8385],[1.3306,12.8172],[1.412,12.7499],[1.4671,12.7044],[1.5359,12.6475],[1.5639,12.6321],[1.597,12.6237],[1.6995,12.6149],[1.8261,12.6042]],[[1.2415,13.3355],[1.2221,13.3446],[1.2057,13.3589],[1.1877,13.3641]],[[1.1877,13.3641],[1.1824,13.3587],[1.1776,13.3476],[1.1676,13.3134],[1.1607,13.3113]],[[1.9717,12.7242],[2.0689,12.7163],[2.109,12.7056],[2.1352,12.6756],[2.141,12.6561],[2.1448,12.6508],[2.1555,12.64],[2.166,12.6317],[2.1843,12.6206],[2.1933,12.6095],[2.2,12.5959],[2.2032,12.5833],[2.2109,12.5231],[2.2157,12.5103],[2.2239,12.4948],[2.2296,12.4871],[2.2423,12.4735],[2.2463,12.4659],[2.2463,12.4617],[2.2431,12.4512],[2.243,12.4462],[2.245,12.4242],[2.2379,12.4135],[2.2233,12.4097],[2.1638,12.4048]],[[1.9345,12.6935],[1.9455,12.7008],[1.9625,12.7191],[1.9717,12.7242]],[[1.9196,12.6983],[1.9266,12.695],[1.9345,12.6935]],[[1.8261,12.6042],[1.8437,12.6061],[1.8607,12.6171],[1.8727,12.6342],[1.8832,12.654],[1.9002,12.6785],[1.907,12.6918],[1.9114,12.6966],[1.9196,12.6983]],[[2.1638,12.4048],[2.1588,12.4057],[2.148,12.4108],[2.145,12.4117]],[[2.145,12.4117],[2.1387,12.4083],[2.1315,12.3985],[2.1269,12.3951],[2.0693,12.3833],[2.0542,12.3709],[2.0518,12.3419],[2.0709,12.3069],[2.1138,12.248],[2.1885,12.1455],[2.2588,12.0488],[2.3381,11.9401],[2.3902,11.8965]],[[0.4876,10.9332],[0.4997,10.9757],[0.4836,10.9797],[0.4871,10.9837],[0.4886,10.9878],[0.4893,10.9919],[0.4906,10.9964],[0.4901,10.9995],[0.4888,11.0018],[0.4866,11.0032],[0.3748,11.0258],[0.2876,11.0434]],[[0.9015,10.9927],[0.7716,10.9904],[0.6753,10.9885],[0.6126,10.9766],[0.4876,10.9332]],[[0.9015,10.9927],[0.8758,10.9312],[0.8729,10.9113],[0.8753,10.9005],[0.8837,10.8802],[0.8851,10.8694],[0.8695,10.8399],[0.8676,10.8292],[0.866,10.8064],[0.8629,10.7961],[0.85,10.7777],[0.7956,10.7265],[0.7813,10.693],[0.7892,10.6029],[0.7885,10.5639],[0.7738,10.5081],[0.7599,10.4052],[0.7607,10.3822],[0.7688,10.3671],[0.8444,10.3172],[0.9395,10.2545],[0.9971,10.2166],[1.0822,10.1604],[1.2255,10.0661],[1.331,9.9965],[1.3438,9.9624],[1.3439,9.9548],[1.3451,9.8811],[1.3469,9.7718],[1.3482,9.6942],[1.356,9.6475],[1.3546,9.6353],[1.3522,9.6254],[1.3525,9.6053],[1.3513,9.5951],[1.3451,9.5824],[1.3273,9.5553],[1.3232,9.5423],[1.3264,9.522],[1.3365,9.4975],[1.3513,9.4825]],[[1.3684,9.4908],[1.3799,9.4625],[1.3867,9.3611],[1.4012,9.3213],[1.4201,9.2923],[1.4253,9.2845],[1.5052,9.2015],[1.5673,9.1367],[1.5878,9.1009],[1.5958,9.0768],[1.6012,9.0495],[1.6028,8.9244],[1.6043,8.8152],[1.6055,8.7225],[1.6072,8.5886],[1.6076,8.5588],[1.609,8.547],[1.6141,8.5358],[1.6399,8.5033],[1.6442,8.4935],[1.6404,8.4758],[1.6076,8.4219],[1.606,8.4134],[1.606,8.396],[1.6011,8.3716],[1.6039,8.3675],[1.604,8.3674],[1.6099,8.3655],[1.6149,8.3563],[1.6256,8.2705],[1.6238,8.1559],[1.6213,7.9966],[1.6219,7.8383],[1.6228,7.6401],[1.6229,7.6225],[1.6233,7.5364],[1.6237,7.4381],[1.6243,7.2888],[1.6249,7.1436],[1.6257,6.9968],[1.6075,6.9914]],[[1.3513,9.4825],[1.3684,9.4908]],[[1.6075,6.9914],[1.5319,6.9919]],[[1.5319,6.9919],[1.5514,6.9209],[1.5626,6.9043],[1.5642,6.9031],[1.5791,6.892],[1.588,6.8812],[1.5901,6.8673],[1.5826,6.8253],[1.5832,6.8083],[1.5875,6.791],[1.5952,6.7706],[1.6011,6.7464],[1.597,6.731],[1.5892,6.7205],[1.5743,6.7006],[1.566,6.6781],[1.5724,6.6669],[1.5854,6.6564],[1.5963,6.6364],[1.5965,6.6286],[1.5948,6.6203],[1.5941,6.611],[1.5973,6.6008],[1.6033,6.5926],[1.6112,6.5847],[1.6196,6.578],[1.6274,6.5733],[1.6368,6.5723]],[[1.6466,6.5732],[1.6539,6.5707],[1.6552,6.5592],[1.6578,6.5523],[1.6744,6.5386],[1.6808,6.5301],[1.682,6.52],[1.6795,6.4986],[1.6817,6.4898],[1.6883,6.4844],[1.7098,6.4734],[1.7184,6.467],[1.7441,6.4257],[1.7635,6.3506],[1.7824,6.2773],[1.7616,6.276],[1.6331,6.2457],[1.6124,6.2348],[1.6197,6.2139]],[[1.6368,6.5723],[1.6466,6.5732]]]}}]}