{"type":"FeatureCollection","features":[{"type":"Feature","properties":{},"geometry":{"type":"MultiLineString","coordinates":[[[4.6419,6.2109],[4.7171,6.1636],[4.7478,6.1389],[4.7827,6.1025],[4.808,6.0631],[4.8262,6.0425],[4.8655,6.0256],[4.8859,6.0065],[5.0073,5.8492],[5.0447,5.7675],[5.055,5.7666],[5.1055,5.8137],[5.12,5.8242],[5.1958,5.864],[5.2354,5.8759],[5.2695,5.9064],[5.2904,5.9101],[5.2674,5.8719],[5.1854,5.842],[5.154,5.8145],[5.1531,5.8046],[5.157,5.7945],[5.1592,5.7856],[5.154,5.7792],[5.1465,5.7811],[5.1265,5.797],[5.115,5.8009],[5.1027,5.7932],[5.0934,5.7747],[5.0874,5.7521],[5.085,5.732],[5.0886,5.7087],[5.0978,5.6909],[5.1073,5.677],[5.1167,5.6488],[5.1292,5.6281],[5.1449,5.6086],[5.1602,5.5948],[5.1736,5.5854],[5.1797,5.5826],[5.2049,5.592],[5.2283,5.6056],[5.2391,5.6085],[5.263,5.6105],[5.2803,5.6175],[5.2932,5.6303],[5.304,5.6501],[5.3314,5.7246],[5.3376,5.7246],[5.3392,5.7059],[5.3369,5.6911],[5.3182,5.6367],[5.3179,5.6196],[5.326,5.6054],[5.345,5.5948],[5.3615,5.5937],[5.3796,5.598],[5.396,5.6059],[5.4065,5.6153],[5.419,5.6459],[5.4285,5.6558],[5.4474,5.6562],[5.4649,5.6486],[5.4851,5.6343],[5.5021,5.6173],[5.5095,5.6016],[5.5096,5.5906],[5.5081,5.5845],[5.5029,5.5818],[5.4925,5.5812],[5.49,5.5858],[5.4844,5.608],[5.4817,5.6153],[5.471,5.6228],[5.4558,5.6274],[5.44,5.6277],[5.427,5.6221],[5.4192,5.6105],[5.4026,5.5748],[5.3928,5.5606],[5.386,5.5606],[5.3652,5.5723],[5.3281,5.5784],[5.2302,5.5825],[5.2228,5.5812],[5.2142,5.5751],[5.1979,5.5576],[5.1912,5.5539],[5.1885,5.5441],[5.1906,5.5229],[5.198,5.5015],[5.2186,5.4871],[5.2502,5.4582],[5.2539,5.4528],[5.2585,5.4418],[5.2632,5.4365],[5.376,5.3988],[5.4338,5.3956],[5.4275,5.404],[5.4211,5.4178],[5.4183,5.4308],[5.4236,5.4365],[5.436,5.4346],[5.44,5.4299],[5.4416,5.4235],[5.4474,5.4167],[5.4686,5.4078],[5.4849,5.4115],[5.4981,5.4264],[5.5095,5.4508],[5.5032,5.4765],[5.5171,5.4986],[5.541,5.5105],[5.5641,5.5054],[5.5689,5.5104],[5.5752,5.5148],[5.5779,5.5197],[5.5962,5.5142],[5.6105,5.5219],[5.6239,5.5336],[5.6399,5.5402],[5.6257,5.5179],[5.614,5.505],[5.6021,5.4993],[5.5687,5.4999],[5.5536,5.4969],[5.5403,5.4883],[5.5339,5.4764],[5.5319,5.4606],[5.5332,5.4442],[5.5369,5.4303],[5.5464,5.4155],[5.5703,5.3947],[5.5779,5.382],[5.5715,5.382],[5.5613,5.3889],[5.5461,5.3895],[5.5296,5.3864],[5.4949,5.3729],[5.4891,5.3688],[5.4837,5.3623],[5.4761,5.3473],[5.468,5.3409],[5.4595,5.353],[5.4568,5.3596],[5.4543,5.3688],[5.4353,5.3633],[5.369,5.362],[5.3457,5.3572],[5.3402,5.3439],[5.3611,5.254],[5.3656,5.2077],[5.3636,5.1716],[5.3656,5.1635],[5.3761,5.1582],[5.4002,5.1623],[5.4133,5.1566],[5.4279,5.1621],[5.4349,5.1632],[5.4443,5.1635],[5.448,5.1676],[5.4471,5.1859],[5.4509,5.1901],[5.4612,5.1841],[5.4885,5.1542],[5.4959,5.1423],[5.4756,5.147],[5.4543,5.1491],[5.4602,5.1338],[5.4754,5.0945],[5.4627,5.1023],[5.4447,5.1271],[5.4338,5.1361],[5.4185,5.1413],[5.4028,5.1424],[5.3909,5.1377],[5.386,5.1256],[5.3893,5.1098],[5.3963,5.0995],[5.4033,5.0919],[5.4065,5.0843],[5.4089,5.0676],[5.4142,5.0524],[5.427,5.0263],[5.4324,5.0109],[5.4413,4.9642],[5.469,4.8868],[5.501,4.8509],[5.5095,4.8271],[5.4754,4.8475],[5.4863,4.835],[5.5115,4.7918],[5.5164,4.7758],[5.5277,4.7565],[5.5715,4.7296],[5.5715,4.711],[5.5646,4.715],[5.5615,4.7164],[5.5573,4.7178],[5.5669,4.6752],[5.5949,4.6365],[5.6877,4.5499],[5.694,4.5456],[5.7207,4.5183],[5.7284,4.5076],[5.7498,4.4844],[5.7637,4.4789],[5.7777,4.4755],[5.7898,4.4697],[5.7975,4.4571],[5.7904,4.4612],[5.7772,4.467],[5.7703,4.4714],[5.7824,4.456],[5.8228,4.4328],[5.8391,4.4161],[5.8454,4.4161],[5.8445,4.4272],[5.8475,4.4344],[5.8547,4.4375],[5.8659,4.4366],[5.8556,4.4116],[5.8675,4.3873],[5.8899,4.3688],[5.9102,4.3615],[5.9181,4.3562],[5.9309,4.3451],[5.9463,4.3352],[5.9614,4.3336],[5.9728,4.3448],[5.9697,4.3615],[5.9546,4.3957],[5.97,4.3864],[5.9751,4.382],[5.9826,4.4161],[5.9886,4.4161],[5.9875,4.3989],[5.9886,4.382],[5.9902,4.3786],[6.0033,4.3592],[6.0015,4.3563],[5.9955,4.3547],[5.9969,4.3194],[6.0049,4.3141]],[[-9.0148,4.9785],[-8.9913,4.9675],[-8.9668,4.9601],[-8.9361,4.9554],[-8.9155,4.9463],[-8.9051,4.9443],[-8.8743,4.9301],[-8.8483,4.9136],[-8.7781,4.8543],[-8.7471,4.8377],[-8.6075,4.7869],[-8.55,4.7549],[-8.4385,4.6762],[-8.3354,4.6388],[-8.316,4.6352],[-8.3002,4.6273],[-8.2573,4.58],[-8.222,4.5681],[-8.1003,4.5533],[-8.0375,4.5288],[-8.0032,4.5235],[-7.9599,4.512],[-7.942,4.5049],[-7.9322,4.4984],[-7.9244,4.4917],[-7.9145,4.4865],[-7.898,4.4844],[-7.8868,4.4802],[-7.8629,4.4614],[-7.8329,4.4522],[-7.8238,4.4407],[-7.8183,4.4272],[-7.8123,4.4161],[-7.801,4.4063],[-7.7887,4.3989],[-7.7495,4.3832],[-7.7332,4.382],[-7.7286,4.3788],[-7.7254,4.3718],[-7.721,4.3647],[-7.7127,4.3615],[-7.6444,4.3615],[-7.6317,4.3593],[-7.6082,4.3494],[-7.5933,4.3472],[-7.541,4.3528],[-7.5406,4.3529],[-7.5243,4.3547],[-7.4809,4.3461],[-7.4568,4.3441],[-7.4387,4.351],[-7.3599,4.4161],[-7.306,4.4455],[-7.2882,4.4605],[-7.2785,4.4638],[-7.266,4.4636],[-7.2552,4.4655],[-7.2452,4.4849],[-7.2328,4.4933],[-7.1735,4.5188],[-7.0992,4.5265],[-7.0582,4.539],[-6.996,4.5765],[-6.9421,4.6216],[-6.9142,4.6557],[-6.9031,4.662],[-6.8795,4.6679],[-6.8537,4.6806],[-6.7533,4.6873],[-6.6268,4.7246],[-6.6107,4.7348],[-6.5839,4.7604],[-6.5679,4.7656],[-6.5472,4.768],[-6.4415,4.7939],[-6.4266,4.802],[-6.4208,4.8171],[-6.4122,4.8239],[-6.1386,4.9152],[-6.0597,4.9558],[-6.0074,4.9752],[-5.9956,4.9748],[-5.9884,4.9839],[-5.9714,4.9926],[-5.8587,5.0277],[-5.8513,5.03],[-5.6302,5.0632],[-5.5505,5.0877],[-5.5577,5.0884],[-5.5784,5.0945],[-5.5505,5.115],[-5.5248,5.0998],[-5.4957,5.0953],[-5.2943,5.106],[-5.2554,5.121],[-5.0024,5.1286],[-5.0149,5.1401],[-5.0234,5.1585],[-5.0291,5.1757],[-5.0332,5.1833],[-5.0677,5.187],[-5.0809,5.1848],[-5.095,5.1737],[-5.1208,5.167],[-5.1814,5.2023],[-5.2148,5.1976],[-5.2284,5.2044],[-5.2284,5.1976],[-5.2138,5.193],[-5.207,5.1824],[-5.199,5.1744],[-5.1807,5.1771],[-5.1869,5.1643],[-5.1971,5.1601],[-5.2093,5.1628],[-5.2216,5.1703],[-5.2355,5.1613],[-5.2516,5.1654],[-5.2681,5.1737],[-5.2831,5.1771],[-5.2869,5.1741],[-5.2995,5.161],[-5.3048,5.1566],[-5.3126,5.1526],[-5.3199,5.1498],[-5.3281,5.1485],[-5.3383,5.1491],[-5.3383,5.1423],[-5.3201,5.1376],[-5.3024,5.1404],[-5.2855,5.1408],[-5.2694,5.1286],[-5.3088,5.1181],[-5.3579,5.1235],[-5.399,5.142],[-5.4139,5.1703],[-5.4004,5.1635],[-5.4008,5.174],[-5.4004,5.1771],[-5.3929,5.1771],[-5.3594,5.1286],[-5.3525,5.1418],[-5.3383,5.1833],[-5.3383,5.1635],[-5.3284,5.1701],[-5.305,5.1816],[-5.2974,5.1901],[-5.2974,5.1976],[-5.3115,5.1958],[-5.317,5.1942],[-5.324,5.1901],[-5.3245,5.1908],[-5.3285,5.1968],[-5.3301,5.1999],[-5.3383,5.1976],[-5.3378,5.2007],[-5.3383,5.2112],[-5.3271,5.2055],[-5.324,5.2044],[-5.3282,5.2165],[-5.3273,5.2261],[-5.3215,5.2302],[-5.3109,5.2255],[-5.3048,5.2255],[-5.2899,5.2277],[-5.2709,5.2194],[-5.253,5.2141],[-5.2421,5.2255],[-5.2358,5.2255],[-5.234,5.223],[-5.2323,5.2208],[-5.2255,5.2155],[-5.2216,5.2112],[-5.1914,5.2192],[-5.1579,5.2122],[-5.129,5.1977],[-5.1123,5.1833],[-5.0987,5.1948],[-5.0821,5.2036],[-5.0643,5.2092],[-5.0098,5.2161],[-4.9971,5.2128],[-5.0099,5.1976],[-5.0033,5.1788],[-5.0038,5.1606],[-4.9971,5.1487],[-4.969,5.1491],[-4.969,5.1423],[-4.9722,5.142],[-4.9787,5.1426],[-4.982,5.1423],[-4.982,5.1361],[-4.9691,5.1374],[-4.9152,5.1364],[-4.9035,5.1343],[-4.8926,5.1286],[-4.8754,5.1362],[-4.7847,5.1439],[-4.6205,5.1807],[-4.3081,5.2062],[-3.9958,5.2317],[-4.0702,5.2665],[-4.0592,5.2657],[-4.0486,5.2662],[-4.0386,5.2684],[-4.0292,5.2727],[-4.0605,5.2834],[-4.1838,5.2802],[-4.1996,5.2768],[-4.2252,5.2624],[-4.2663,5.255],[-4.2863,5.2479],[-4.3058,5.2446],[-4.3247,5.2522],[-4.3378,5.2409],[-4.3517,5.2444],[-4.3673,5.2517],[-4.3856,5.2522],[-4.3921,5.2436],[-4.4003,5.2297],[-4.4081,5.2236],[-4.4128,5.2385],[-4.4416,5.225],[-4.5006,5.2287],[-4.5227,5.218],[-4.5301,5.218],[-4.5301,5.2317],[-4.5649,5.2232],[-4.571,5.218],[-4.5683,5.2087],[-4.5588,5.2042],[-4.5467,5.2032],[-4.5364,5.2044],[-4.5596,5.197],[-4.5699,5.1955],[-4.5848,5.1976],[-4.5882,5.2001],[-4.5925,5.2048],[-4.5989,5.2092],[-4.6083,5.2112],[-4.6394,5.2112],[-4.6545,5.2094],[-4.6748,5.2007],[-4.6872,5.1976],[-4.6954,5.2002],[-4.7003,5.2067],[-4.7047,5.2113],[-4.7172,5.2044],[-4.7424,5.1976],[-4.7424,5.1901],[-4.7375,5.1793],[-4.7477,5.1723],[-4.7655,5.1693],[-4.7834,5.1703],[-4.7995,5.1745],[-4.8086,5.1805],[-4.81,5.1899],[-4.8038,5.2044],[-4.7794,5.2189],[-4.7422,5.2346],[-4.7222,5.2523],[-4.7493,5.2727],[-4.7236,5.2735],[-4.7025,5.2783],[-4.6858,5.2906],[-4.6735,5.3136],[-4.6673,5.3136],[-4.6673,5.3015],[-4.6704,5.2919],[-4.6769,5.2848],[-4.6872,5.2802],[-4.6872,5.2727],[-4.6781,5.2714],[-4.6726,5.2681],[-4.6694,5.2619],[-4.6673,5.2522],[-4.6821,5.253],[-4.693,5.2563],[-4.7028,5.2574],[-4.7145,5.2522],[-4.7102,5.2462],[-4.7025,5.2399],[-4.6938,5.2346],[-4.6872,5.2317],[-4.6803,5.2317],[-4.6706,5.2407],[-4.652,5.2492],[-4.6306,5.2506],[-4.6121,5.2385],[-4.5892,5.2566],[-4.5755,5.263],[-4.5575,5.2665],[-4.5575,5.2727],[-4.5655,5.2765],[-4.5697,5.2825],[-4.5693,5.2904],[-4.5636,5.3],[-4.5525,5.2845],[-4.5477,5.276],[-4.5438,5.2665],[-4.4728,5.2634],[-4.4537,5.259],[-4.4574,5.2696],[-4.4638,5.2761],[-4.4722,5.2775],[-4.4817,5.2727],[-4.4777,5.2913],[-4.4635,5.2982],[-4.4265,5.3],[-4.4287,5.2964],[-4.4297,5.2956],[-4.4309,5.2954],[-4.4339,5.2932],[-4.4238,5.2816],[-4.4134,5.2851],[-4.4029,5.2943],[-4.3924,5.3],[-4.3833,5.297],[-4.3705,5.2892],[-4.3585,5.28],[-4.3513,5.2727],[-4.3435,5.2826],[-4.3276,5.2952],[-4.3214,5.311],[-4.3138,5.3112],[-4.3048,5.3068],[-4.2974,5.3],[-4.2856,5.3105],[-4.2746,5.3124],[-4.2489,5.3074],[-4.2509,5.303],[-4.2538,5.2915],[-4.2558,5.2869],[-4.241,5.2839],[-4.2278,5.289],[-4.2006,5.3074],[-4.1933,5.2988],[-4.1862,5.2941],[-4.1797,5.2942],[-4.1739,5.3],[-4.1601,5.2934],[-4.1494,5.2966],[-4.1387,5.3034],[-4.1255,5.3074],[-4.0969,5.2927],[-4.0785,5.2878],[-4.0702,5.2966],[-4.0609,5.2995],[-4.04,5.2934],[-4.0181,5.2836],[-4.0056,5.2764],[-3.9891,5.2691],[-3.971,5.273],[-3.9538,5.2829],[-3.9405,5.2932],[-3.9547,5.3074],[-3.9674,5.3019],[-3.984,5.3009],[-3.9996,5.3046],[-4.0093,5.3136],[-3.998,5.3168],[-3.9746,5.3205],[-3.9635,5.3149],[-3.9516,5.3129],[-3.9407,5.3146],[-3.933,5.3205],[-3.921,5.3162],[-3.9126,5.3222],[-3.9077,5.3343],[-3.9063,5.3484],[-3.8995,5.3484],[-3.9001,5.338],[-3.8988,5.3297],[-3.8961,5.3218],[-3.892,5.3136],[-3.8891,5.3178],[-3.8832,5.3222],[-3.8784,5.3266],[-3.8759,5.3134],[-3.8667,5.3036],[-3.8549,5.2969],[-3.8443,5.2932],[-3.8287,5.2912],[-3.8183,5.2917],[-3.809,5.2878],[-3.7965,5.2727],[-3.789,5.2727],[-3.7763,5.279],[-3.7594,5.2754],[-3.744,5.274],[-3.735,5.2869],[-3.7523,5.2946],[-3.7674,5.3106],[-3.7927,5.3446],[-3.814,5.3598],[-3.817,5.3655],[-3.8133,5.3744],[-3.8049,5.376],[-3.7955,5.3732],[-3.789,5.3688],[-3.7781,5.3728],[-3.7672,5.3715],[-3.7589,5.3662],[-3.7555,5.3583],[-3.7533,5.3438],[-3.7419,5.3105],[-3.7348,5.2985],[-3.7219,5.291],[-3.7157,5.2823],[-3.7289,5.2665],[-3.7398,5.2624],[-3.7667,5.2661],[-3.7822,5.2665],[-3.7794,5.2612],[-3.7777,5.2512],[-3.7754,5.2448],[-3.8116,5.2641],[-3.8341,5.2729],[-3.8443,5.2696],[-3.8512,5.2698],[-3.8857,5.2839],[-3.8995,5.2869],[-3.8995,5.2802],[-3.8948,5.2745],[-3.8937,5.2675],[-3.8964,5.2615],[-3.9029,5.259],[-3.9113,5.2619],[-3.9184,5.269],[-3.933,5.2869],[-3.9438,5.2718],[-3.9623,5.2624],[-3.9834,5.2603],[-4.0019,5.2665],[-3.987,5.244],[-3.9558,5.2346],[-3.8859,5.2255],[-3.8409,5.2012],[-3.8275,5.1976],[-3.7869,5.199],[-3.7675,5.197],[-3.7555,5.1901],[-3.748,5.1901],[-3.7452,5.2027],[-3.7397,5.2171],[-3.7317,5.23],[-3.7214,5.2385],[-3.7289,5.2255],[-3.7189,5.217],[-3.7173,5.2102],[-3.7196,5.2031],[-3.7214,5.1938],[-3.718,5.1887],[-3.7101,5.1861],[-3.6785,5.1798],[-3.632,5.1771],[-3.378,5.1232],[-3.3122,5.1199],[-3.2758,5.1491],[-3.2905,5.1514],[-3.3031,5.1557],[-3.309,5.1638],[-3.303,5.1771],[-3.319,5.1848],[-3.3207,5.1935],[-3.3136,5.1973],[-3.303,5.1901],[-3.2983,5.2007],[-3.292,5.2105],[-3.2843,5.2191],[-3.2758,5.2255],[-3.2657,5.2287],[-3.2504,5.2274],[-3.241,5.2317],[-3.241,5.2385],[-3.252,5.2379],[-3.2628,5.2388],[-3.2731,5.2412],[-3.2826,5.2448],[-3.2758,5.2448],[-3.2803,5.2462],[-3.2894,5.2522],[-3.2821,5.2587],[-3.2782,5.2654],[-3.2782,5.2725],[-3.2826,5.2802],[-3.2543,5.2836],[-3.2469,5.2976],[-3.2521,5.3181],[-3.2621,5.3409],[-3.2494,5.3454],[-3.2302,5.3586],[-3.2205,5.362],[-3.2118,5.3615],[-3.1981,5.3559],[-3.1898,5.3546],[-3.1807,5.3568],[-3.1733,5.3618],[-3.1674,5.3666],[-3.1627,5.3688],[-3.1461,5.3688],[-3.1344,5.3668],[-3.1278,5.3596],[-3.1255,5.3446],[-3.1279,5.3249],[-3.1348,5.3186],[-3.1454,5.316],[-3.1591,5.3074],[-3.165,5.2959],[-3.168,5.2663],[-3.1727,5.2522],[-3.1788,5.2488],[-3.1943,5.2344],[-3.2051,5.2187],[-3.1969,5.2112],[-3.1809,5.2032],[-3.1625,5.1841],[-3.1468,5.1613]],[[-2.9467,5.1771],[-2.9204,5.1765],[-2.8794,5.1813],[-2.8462,5.177]],[[-3.1591,5.1256],[-3.1634,5.1255],[-3.185,5.1323],[-3.1932,5.1361],[-3.196,5.1402],[-3.1974,5.1459],[-3.2003,5.1518],[-3.2074,5.1566],[-3.2341,5.1635],[-3.2533,5.1496],[-3.2723,5.1324],[-3.2764,5.1181],[-3.2621,5.111],[-3.1638,5.1015]],[[1.271,6.1337],[1.4295,6.182],[1.6193,6.2138],[1.6196,6.2139],[1.8845,6.2748],[2.2268,6.3137],[2.307,6.3315],[2.7033,6.3683],[2.7039,6.3684],[2.9277,6.3891],[3.0824,6.3815],[3.2142,6.3967],[3.3262,6.3914],[3.3845,6.3977],[3.3895,6.42],[3.3841,6.4248],[3.3826,6.4307],[3.3799,6.4359],[3.375,6.4411],[3.3698,6.45],[3.3739,6.4561],[3.3811,6.4616],[3.3849,6.4687],[3.388,6.4807],[3.402,6.5022],[3.406,6.5128],[3.4056,6.5221],[3.4001,6.5368],[3.3986,6.5438],[3.4024,6.5522],[3.4113,6.5543],[3.4219,6.5548],[3.4299,6.5578],[3.4519,6.5818],[3.464,6.5922],[3.4812,6.6022],[3.4802,6.5881],[3.4733,6.5666],[3.4744,6.5544],[3.4785,6.5414],[3.4816,6.5383],[3.488,6.5333],[3.5003,6.5339],[3.513,6.5294],[3.5153,6.5271],[3.5283,6.5278],[3.54,6.5301],[3.5515,6.5342],[3.5867,6.5529],[3.597,6.5543],[3.6152,6.5544],[3.6638,6.5702],[3.7175,6.6011],[3.7737,6.6224],[3.8306,6.609],[3.8379,6.611],[3.844,6.6108],[3.8503,6.6081],[3.8579,6.6022],[3.7747,6.5901],[3.7622,6.5851],[3.7568,6.5638],[3.7427,6.5478],[3.7227,6.536],[3.7002,6.5271],[3.6868,6.5311],[3.6428,6.5171],[3.6213,6.5128],[3.5808,6.5128],[3.5708,6.5093],[3.5702,6.5007],[3.5724,6.4896],[3.5706,6.4787],[3.5568,6.463],[3.5414,6.4548],[3.5244,6.4518],[3.5054,6.4514],[3.4924,6.4465],[3.4846,6.4468],[3.4812,6.4548],[3.4754,6.4556],[3.4402,6.4234],[3.4363,6.4383],[3.4343,6.4534],[3.4285,6.4587],[3.4129,6.4445],[3.4069,6.4494],[3.4011,6.451],[3.3943,6.4494],[3.3849,6.4445],[3.3991,6.434],[3.4089,6.4229],[3.4212,6.414],[3.4436,6.4103],[3.8703,6.4316],[4.1258,6.4103],[4.342,6.3706],[4.4055,6.3589],[4.493,6.3205],[4.509,6.3135],[4.5474,6.289],[4.6087,6.2318],[4.6419,6.2109]]]}}]}